{"type":"FeatureCollection","features":[{"type":"Feature","properties":{"zone_id":"county_gibson","zone_name":"Gibson County (archive coverage grade: learning)","coverage_score":50,"evidence_tier":"baseline","updated_at":"2026-08-04T14:17"},"geometry":{"type":"Polygon","coordinates":[[[-87.46289,38.53352],[-87.40758,38.3755],[-87.31596,38.37529],[-87.31689,38.24608],[-87.31703,38.20175],[-87.46674,38.20129],[-87.46728,38.1654],[-87.68837,38.16842],[-87.79917,38.22858],[-87.95534,38.23001],[-87.95171,38.23963],[-87.92396,38.25841],[-87.86303,38.28017],[-87.75003,38.40303],[-87.74,38.4157],[-87.59932,38.45072],[-87.46289,38.53352]]]}},{"type":"Feature","properties":{"zone_id":"county_hancock","zone_name":"Hancock County (archive coverage grade: learning)","coverage_score":50,"evidence_tier":"baseline","updated_at":"2026-08-04T14:17"},"geometry":{"type":"Polygon","coordinates":[[[-85.93808,39.88718],[-85.93808,39.9232],[-85.93759,39.92714],[-85.8624,39.92894],[-85.86249,39.94362],[-85.57619,39.94576],[-85.59692,39.78652],[-85.63349,39.78618],[-85.63323,39.69846],[-85.95172,39.69714],[-85.9517,39.72642],[-85.93808,39.88718]]]}},{"type":"Feature","properties":{"zone_id":"county_huntington","zone_name":"Huntington County (archive coverage grade: learning)","coverage_score":50,"evidence_tier":"baseline","updated_at":"2026-08-04T14:17"},"geometry":{"type":"Polygon","coordinates":[[[-85.64384,41.0023],[-85.33564,41.00525],[-85.33537,41.00205],[-85.33603,40.91708],[-85.33467,40.65441],[-85.44882,40.65361],[-85.63859,40.65313],[-85.64384,41.0023]]]}},{"type":"Feature","properties":{"zone_id":"county_jennings","zone_name":"Jennings County (archive coverage grade: learning)","coverage_score":50,"evidence_tier":"baseline","updated_at":"2026-08-04T14:17"},"geometry":{"type":"Polygon","coordinates":[[[-85.68384,38.81541],[-85.79536,38.80751],[-85.7988,39.06854],[-85.79983,39.1289],[-85.68678,39.13086],[-85.56632,39.13276],[-85.44005,39.19562],[-85.4449,38.913],[-85.68384,38.81541]]]}},{"type":"Feature","properties":{"zone_id":"county_kosciusko","zone_name":"Kosciusko County (archive coverage grade: learning)","coverage_score":50,"evidence_tier":"baseline","updated_at":"2026-08-04T14:17"},"geometry":{"type":"Polygon","coordinates":[[[-85.65193,41.29478],[-85.68657,41.17838],[-85.68418,41.04672],[-85.92727,41.04257],[-85.94556,41.04288],[-86.07594,41.08488],[-86.07755,41.17287],[-86.05405,41.17315],[-86.05923,41.43581],[-85.65351,41.43686],[-85.65193,41.29478]]]}},{"type":"Feature","properties":{"zone_id":"county_madison","zone_name":"Madison County (archive coverage grade: learning)","coverage_score":50,"evidence_tier":"baseline","updated_at":"2026-08-04T14:17"},"geometry":{"type":"Polygon","coordinates":[[[-85.57619,39.94576],[-85.86249,39.94362],[-85.8619,40.21894],[-85.86116,40.22531],[-85.8623,40.37837],[-85.58786,40.37976],[-85.57859,40.37952],[-85.5762,40.07714],[-85.57619,39.94576]]]}},{"type":"Feature","properties":{"zone_id":"county_monroe","zone_name":"Monroe County (archive coverage grade: learning)","coverage_score":50,"evidence_tier":"baseline","updated_at":"2026-08-04T14:17"},"geometry":{"type":"Polygon","coordinates":[[[-86.57355,38.99215],[-86.68228,38.9924],[-86.683,39.16575],[-86.68561,39.33604],[-86.63082,39.34695],[-86.63084,39.34076],[-86.57428,39.33968],[-86.38139,39.33975],[-86.37007,39.04838],[-86.31813,39.04881],[-86.3178,39.00273],[-86.31738,39.00005],[-86.31747,38.99087],[-86.57355,38.99215]]]}},{"type":"Feature","properties":{"zone_id":"county_ohio","zone_name":"Ohio County (archive coverage grade: learning)","coverage_score":50,"evidence_tier":"baseline","updated_at":"2026-08-04T14:17"},"geometry":{"type":"Polygon","coordinates":[[[-84.84945,39.00092],[-84.81318,38.93058],[-84.87075,38.90091],[-85.14031,38.90319],[-85.13583,38.92958],[-85.13251,38.94805],[-84.87861,39.0303],[-84.84945,39.00092]]]}},{"type":"Feature","properties":{"zone_id":"county_pike","zone_name":"Pike County (archive coverage grade: learning)","coverage_score":50,"evidence_tier":"baseline","updated_at":"2026-08-04T14:17"},"geometry":{"type":"Polygon","coordinates":[[[-87.31689,38.24608],[-87.31596,38.37529],[-87.40758,38.3755],[-87.46289,38.53352],[-87.2421,38.54493],[-87.07237,38.5147],[-87.07307,38.2326],[-87.31689,38.24608]]]}},{"type":"Feature","properties":{"zone_id":"county_pulaski","zone_name":"Pulaski County (archive coverage grade: learning)","coverage_score":50,"evidence_tier":"baseline","updated_at":"2026-08-04T14:17"},"geometry":{"type":"Polygon","coordinates":[[[-86.77585,40.91246],[-86.93076,40.91242],[-86.93031,41.1709],[-86.93017,41.17232],[-86.46705,41.17144],[-86.46851,40.90989],[-86.58153,40.91092],[-86.77585,40.91246]]]}},{"type":"Feature","properties":{"zone_id":"county_rush","zone_name":"Rush County (archive coverage grade: learning)","coverage_score":50,"evidence_tier":"baseline","updated_at":"2026-08-04T14:17"},"geometry":{"type":"Polygon","coordinates":[[[-85.29811,39.52548],[-85.29862,39.52026],[-85.29757,39.45327],[-85.62933,39.45275],[-85.63253,39.6975],[-85.63323,39.69846],[-85.63349,39.78618],[-85.59692,39.78652],[-85.30158,39.78758],[-85.29811,39.52548]]]}},{"type":"Feature","properties":{"zone_id":"county_sullivan","zone_name":"Sullivan County (archive coverage grade: learning)","coverage_score":50,"evidence_tier":"baseline","updated_at":"2026-08-04T14:17"},"geometry":{"type":"Polygon","coordinates":[[[-87.52791,38.90821],[-87.51883,38.92321],[-87.51219,38.95442],[-87.57259,39.05729],[-87.61488,39.10265],[-87.65875,39.136],[-87.65172,39.1506],[-87.64217,39.1571],[-87.62873,39.15743],[-87.60517,39.1859],[-87.58751,39.24928],[-87.59349,39.24745],[-87.60408,39.25946],[-87.24038,39.25906],[-87.24074,39.17177],[-87.24103,38.90787],[-87.52811,38.90803],[-87.52791,38.90821]]]}},{"type":"Feature","properties":{"zone_id":"county_warrick","zone_name":"Warrick County (archive coverage grade: learning)","coverage_score":50,"evidence_tier":"baseline","updated_at":"2026-08-04T14:17"},"geometry":{"type":"Polygon","coordinates":[[[-87.26956,37.87716],[-87.30232,37.89845],[-87.38025,37.9356],[-87.40263,37.94227],[-87.41858,37.94476],[-87.43686,37.94419],[-87.45046,37.94145],[-87.45118,37.94103],[-87.46728,38.1654],[-87.46674,38.20129],[-87.31703,38.20175],[-87.31689,38.24608],[-87.07307,38.2326],[-87.07314,38.20382],[-87.01749,38.20358],[-87.01745,38.1183],[-87.07233,38.11828],[-87.268,37.92477],[-87.26956,37.87716]]]}},{"type":"Feature","properties":{"zone_id":"county_wells","zone_name":"Wells County (archive coverage grade: learning)","coverage_score":50,"evidence_tier":"baseline","updated_at":"2026-08-04T14:17"},"geometry":{"type":"Polygon","coordinates":[[[-85.33603,40.91708],[-85.16706,40.91658],[-85.07386,40.91782],[-85.06848,40.56824],[-85.20115,40.56724],[-85.44701,40.56693],[-85.44899,40.65127],[-85.44882,40.65361],[-85.33467,40.65441],[-85.33603,40.91708]]]}},{"type":"Feature","properties":{"zone_id":"county_whitley","zone_name":"Whitley County (archive coverage grade: learning)","coverage_score":50,"evidence_tier":"baseline","updated_at":"2026-08-04T14:17"},"geometry":{"type":"Polygon","coordinates":[[[-85.65193,41.29478],[-85.53718,41.26616],[-85.30778,41.26416],[-85.33855,41.17912],[-85.33564,41.00525],[-85.64384,41.0023],[-85.6832,41.00191],[-85.68418,41.04672],[-85.68657,41.17838],[-85.65193,41.29478]]]}},{"type":"Feature","properties":{"zone_id":"county_blackford","zone_name":"Blackford County (archive coverage grade: learning)","coverage_score":50,"evidence_tier":"baseline","updated_at":"2026-08-04T14:17"},"geometry":{"type":"Polygon","coordinates":[[[-85.2199,40.37903],[-85.44433,40.37914],[-85.44701,40.56693],[-85.20115,40.56724],[-85.20683,40.37918],[-85.2199,40.37903]]]}},{"type":"Feature","properties":{"zone_id":"county_boone","zone_name":"Boone County (archive coverage grade: learning)","coverage_score":50,"evidence_tier":"baseline","updated_at":"2026-08-04T14:17"},"geometry":{"type":"Polygon","coordinates":[[[-86.24237,40.18078],[-86.23974,39.92605],[-86.24109,39.92609],[-86.26331,39.92489],[-86.32629,39.92403],[-86.69507,39.92277],[-86.6958,40.17866],[-86.39885,40.17719],[-86.24237,40.18078]]]}},{"type":"Feature","properties":{"zone_id":"county_clay","zone_name":"Clay County (archive coverage grade: learning)","coverage_score":50,"evidence_tier":"baseline","updated_at":"2026-08-04T14:17"},"geometry":{"type":"Polygon","coordinates":[[[-87.24074,39.17177],[-87.24038,39.25906],[-87.23896,39.52062],[-87.19901,39.60714],[-87.01306,39.60479],[-87.01453,39.47357],[-86.93998,39.47335],[-86.94247,39.34204],[-87.05365,39.34262],[-87.05458,39.16809],[-87.06834,39.16797],[-87.24074,39.17177]]]}},{"type":"Feature","properties":{"zone_id":"county_orange","zone_name":"Orange County (archive coverage grade: learning)","coverage_score":50,"evidence_tier":"baseline","updated_at":"2026-08-04T14:17"},"geometry":{"type":"Polygon","coordinates":[[[-86.30867,38.42287],[-86.30887,38.39407],[-86.68142,38.39477],[-86.68236,38.52638],[-86.6831,38.68656],[-86.3087,38.6881],[-86.30789,38.67298],[-86.30867,38.42287]]]}},{"type":"Feature","properties":{"zone_id":"county_parke","zone_name":"Parke County (archive coverage grade: learning)","coverage_score":50,"evidence_tier":"baseline","updated_at":"2026-08-04T14:17"},"geometry":{"type":"Polygon","coordinates":[[[-87.42022,39.95245],[-87.20413,39.95328],[-87.19029,39.95338],[-87.19012,39.95307],[-87.17942,39.95303],[-87.17872,39.9533],[-87.12605,39.95298],[-87.1259,39.95315],[-87.09101,39.95301],[-87.09154,39.86727],[-87.00948,39.86671],[-87.01306,39.60479],[-87.19901,39.60714],[-87.38242,39.60794],[-87.39562,39.65295],[-87.35386,39.86208],[-87.42022,39.95245]]]}},{"type":"Feature","properties":{"zone_id":"county_porter","zone_name":"Porter County (archive coverage grade: learning)","coverage_score":50,"evidence_tier":"baseline","updated_at":"2026-08-04T14:17"},"geometry":{"type":"Polygon","coordinates":[[[-86.93275,41.71104],[-86.92936,41.46321],[-86.93006,41.44969],[-86.93008,41.2368],[-86.96813,41.21966],[-87.13165,41.28616],[-87.21886,41.24203],[-87.22264,41.62416],[-87.22066,41.62436],[-87.18765,41.62965],[-87.16062,41.63727],[-87.16078,41.64538],[-87.12583,41.6503],[-87.12032,41.6457],[-87.06603,41.66184],[-87.02789,41.67466],[-87.00964,41.68152],[-86.93483,41.70964],[-86.93275,41.71104]]]}},{"type":"Feature","properties":{"zone_id":"county_randolph","zone_name":"Randolph County (archive coverage grade: learning)","coverage_score":50,"evidence_tier":"baseline","updated_at":"2026-08-04T14:17"},"geometry":{"type":"Polygon","coordinates":[[[-84.80392,40.31009],[-84.8041,40.3025],[-84.80563,40.22366],[-84.80617,40.19799],[-84.80634,40.19233],[-84.80635,40.19225],[-84.80677,40.18013],[-84.80829,40.12903],[-84.80831,40.12702],[-84.80871,40.10722],[-84.80974,40.04893],[-84.8101,40.03421],[-84.81067,40.00507],[-85.20147,40.00452],[-85.2135,40.00438],[-85.21439,40.07689],[-85.21876,40.30671],[-84.80392,40.31009]]]}},{"type":"Feature","properties":{"zone_id":"county_ripley","zone_name":"Ripley County (archive coverage grade: learning)","coverage_score":50,"evidence_tier":"baseline","updated_at":"2026-08-04T14:17"},"geometry":{"type":"Polygon","coordinates":[[[-85.29654,39.26829],[-85.21788,39.30847],[-85.06557,39.30723],[-85.13251,38.94805],[-85.13583,38.92958],[-85.20285,38.92852],[-85.20317,38.9138],[-85.4449,38.913],[-85.44005,39.19562],[-85.43791,39.19713],[-85.29654,39.26829]]]}},{"type":"Feature","properties":{"zone_id":"county_st._joseph","zone_name":"St. Joseph County (archive coverage grade: learning)","coverage_score":50,"evidence_tier":"baseline","updated_at":"2026-08-04T14:17"},"geometry":{"type":"Polygon","coordinates":[[[-86.52422,41.75946],[-86.51932,41.75945],[-86.50177,41.75955],[-86.2655,41.76021],[-86.2261,41.76002],[-86.22607,41.76002],[-86.21759,41.76002],[-86.12784,41.76059],[-86.12546,41.76056],[-86.12506,41.76058],[-86.06257,41.76028],[-86.06052,41.60896],[-86.06065,41.6084],[-86.05945,41.47915],[-86.46711,41.47646],[-86.4666,41.43297],[-86.48889,41.43302],[-86.49075,41.43291],[-86.51901,41.43287],[-86.51975,41.43279],[-86.52471,41.43289],[-86.48643,41.57055],[-86.52668,41.65044],[-86.52422,41.75946]]]}},{"type":"Feature","properties":{"zone_id":"county_starke","zone_name":"Starke County (archive coverage grade: learning)","coverage_score":50,"evidence_tier":"baseline","updated_at":"2026-08-04T14:17"},"geometry":{"type":"Polygon","coordinates":[[[-86.93017,41.17232],[-86.92965,41.22971],[-86.93008,41.2368],[-86.78347,41.28547],[-86.70063,41.40198],[-86.52471,41.43289],[-86.51975,41.43279],[-86.51901,41.43287],[-86.49075,41.43291],[-86.48889,41.43302],[-86.4666,41.43297],[-86.46705,41.17144],[-86.93017,41.17232]]]}},{"type":"Feature","properties":{"zone_id":"county_steuben","zone_name":"Steuben County (archive coverage grade: learning)","coverage_score":50,"evidence_tier":"baseline","updated_at":"2026-08-04T14:17"},"geometry":{"type":"Polygon","coordinates":[[[-84.82513,41.75999],[-84.81887,41.76006],[-84.80613,41.74312],[-84.80607,41.7376],[-84.80607,41.73291],[-84.80604,41.72054],[-84.80602,41.70748],[-84.80608,41.69609],[-84.80621,41.67455],[-84.80567,41.63234],[-84.8057,41.6314],[-84.80581,41.61304],[-84.80473,41.53023],[-84.80473,41.53014],[-85.19408,41.52644],[-85.19677,41.75973],[-85.19664,41.75973],[-85.17223,41.75962],[-85.1231,41.75974],[-85.11727,41.7597],[-85.03944,41.75999],[-85.03782,41.7598],[-84.9728,41.75937],[-84.97155,41.75953],[-84.96156,41.75955],[-84.96086,41.75944],[-84.93248,41.75969],[-84.8252,41.75999],[-84.82513,41.75999]]]}},{"type":"Feature","properties":{"zone_id":"county_tipton","zone_name":"Tipton County (archive coverage grade: learning)","coverage_score":50,"evidence_tier":"baseline","updated_at":"2026-08-04T14:17"},"geometry":{"type":"Polygon","coordinates":[[[-85.86212,40.40689],[-85.8623,40.37837],[-85.86116,40.22531],[-85.8619,40.21894],[-86.24274,40.21583],[-86.24299,40.37366],[-86.24281,40.40291],[-85.86212,40.40689]]]}},{"type":"Feature","properties":{"zone_id":"county_union","zone_name":"Union County (archive coverage grade: learning)","coverage_score":50,"evidence_tier":"baseline","updated_at":"2026-08-04T14:17"},"geometry":{"type":"Polygon","coordinates":[[[-84.81413,39.72662],[-84.81413,39.72656],[-84.81453,39.68043],[-84.81462,39.66917],[-84.81471,39.62885],[-84.81516,39.56835],[-84.81504,39.5677],[-84.81495,39.56725],[-84.81495,39.56625],[-84.81516,39.54805],[-84.81535,39.52195],[-84.81535,39.52195],[-85.03609,39.52621],[-85.03458,39.71476],[-84.81413,39.72662]]]}},{"type":"Feature","properties":{"zone_id":"county_vigo","zone_name":"Vigo County (archive coverage grade: learning)","coverage_score":50,"evidence_tier":"baseline","updated_at":"2026-08-04T14:17"},"geometry":{"type":"Polygon","coordinates":[[[-87.24038,39.25906],[-87.60408,39.25946],[-87.60554,39.26112],[-87.61005,39.28223],[-87.60404,39.31353],[-87.58908,39.33383],[-87.58485,39.33733],[-87.54401,39.35291],[-87.53727,39.35209],[-87.53165,39.34789],[-87.53136,39.43666],[-87.53136,39.43773],[-87.53149,39.44947],[-87.53161,39.46623],[-87.53162,39.46938],[-87.53166,39.47711],[-87.53166,39.47712],[-87.53163,39.4917],[-87.53169,39.49552],[-87.53196,39.52694],[-87.53194,39.54585],[-87.53201,39.56401],[-87.5322,39.60731],[-87.38242,39.60794],[-87.19901,39.60714],[-87.23896,39.52062],[-87.24038,39.25906]]]}},{"type":"Feature","properties":{"zone_id":"county_wabash","zone_name":"Wabash County (archive coverage grade: learning)","coverage_score":50,"evidence_tier":"baseline","updated_at":"2026-08-04T14:17"},"geometry":{"type":"Polygon","coordinates":[[[-85.94556,41.04288],[-85.92727,41.04257],[-85.68418,41.04672],[-85.6832,41.00191],[-85.64384,41.0023],[-85.63859,40.65313],[-85.85715,40.65136],[-85.86479,40.65169],[-85.93953,40.65099],[-85.94644,40.9992],[-85.9454,41.00015],[-85.94556,41.04288]]]}},{"type":"Feature","properties":{"zone_id":"county_washington","zone_name":"Washington County (archive coverage grade: learning)","coverage_score":50,"evidence_tier":"baseline","updated_at":"2026-08-04T14:17"},"geometry":{"type":"Polygon","coordinates":[[[-85.99462,38.41835],[-86.01414,38.41908],[-86.01445,38.41868],[-86.03282,38.4179],[-86.25504,38.42269],[-86.30867,38.42287],[-86.30789,38.67298],[-86.3087,38.6881],[-86.27528,38.7638],[-86.09171,38.7834],[-85.88833,38.73444],[-85.88564,38.57541],[-85.84789,38.56127],[-85.88478,38.50347],[-85.99332,38.48854],[-85.99462,38.41835]]]}},{"type":"Feature","properties":{"zone_id":"county_white","zone_name":"White County (archive coverage grade: learning)","coverage_score":50,"evidence_tier":"baseline","updated_at":"2026-08-04T14:17"},"geometry":{"type":"Polygon","coordinates":[[[-86.6971,40.7371],[-86.74776,40.73754],[-86.77129,40.56208],[-87.09536,40.56289],[-87.09682,40.73649],[-87.09839,40.73654],[-87.09979,40.83761],[-86.98644,40.83792],[-86.93076,40.91242],[-86.77585,40.91246],[-86.58153,40.91092],[-86.58174,40.73577],[-86.67799,40.73675],[-86.67815,40.7369],[-86.6971,40.7371]]]}},{"type":"Feature","properties":{"zone_id":"county_greene","zone_name":"Greene County (archive coverage grade: learning)","coverage_score":50,"evidence_tier":"baseline","updated_at":"2026-08-04T14:17"},"geometry":{"type":"Polygon","coordinates":[[[-87.24103,38.90787],[-87.24074,39.17177],[-87.06834,39.16797],[-87.05458,39.16809],[-86.683,39.16575],[-86.68228,38.9924],[-86.68285,38.9047],[-86.90425,38.9042],[-87.03126,38.90252],[-87.09877,38.90397],[-87.24103,38.90787]]]}},{"type":"Feature","properties":{"zone_id":"county_hamilton","zone_name":"Hamilton County (archive coverage grade: learning)","coverage_score":50,"evidence_tier":"baseline","updated_at":"2026-08-04T14:17"},"geometry":{"type":"Polygon","coordinates":[[[-86.17224,39.9269],[-86.23974,39.92605],[-86.24237,40.18078],[-86.24274,40.21583],[-85.8619,40.21894],[-85.86249,39.94362],[-85.8624,39.92894],[-85.93759,39.92714],[-86.17224,39.9269]]]}},{"type":"Feature","properties":{"zone_id":"county_henry","zone_name":"Henry County (archive coverage grade: learning)","coverage_score":50,"evidence_tier":"baseline","updated_at":"2026-08-04T14:17"},"geometry":{"type":"Polygon","coordinates":[[[-85.57619,39.94576],[-85.5762,40.07714],[-85.21603,40.07683],[-85.21439,40.07689],[-85.2135,40.00438],[-85.20147,40.00452],[-85.22112,39.78845],[-85.30158,39.78758],[-85.59692,39.78652],[-85.57619,39.94576]]]}},{"type":"Feature","properties":{"zone_id":"county_howard","zone_name":"Howard County (archive coverage grade: learning)","coverage_score":50,"evidence_tier":"baseline","updated_at":"2026-08-04T14:17"},"geometry":{"type":"Polygon","coordinates":[[[-86.18404,40.56246],[-86.16502,40.56265],[-86.12742,40.5631],[-85.86364,40.56553],[-85.86212,40.40689],[-86.24281,40.40291],[-86.24299,40.37366],[-86.37576,40.43185],[-86.37442,40.56136],[-86.18404,40.56246]]]}},{"type":"Feature","properties":{"zone_id":"county_jackson","zone_name":"Jackson County (archive coverage grade: learning)","coverage_score":50,"evidence_tier":"baseline","updated_at":"2026-08-04T14:17"},"geometry":{"type":"Polygon","coordinates":[[[-85.88833,38.73444],[-86.09171,38.7834],[-86.27528,38.7638],[-86.28039,38.99103],[-86.31747,38.99087],[-86.31738,39.00005],[-86.3178,39.00273],[-86.31813,39.04881],[-86.08027,39.05027],[-85.86057,39.04091],[-85.7988,39.06854],[-85.79536,38.80751],[-85.88833,38.73444]]]}},{"type":"Feature","properties":{"zone_id":"county_jefferson","zone_name":"Jefferson County (archive coverage grade: learning)","coverage_score":50,"evidence_tier":"baseline","updated_at":"2026-08-04T14:17"},"geometry":{"type":"Polygon","coordinates":[[[-85.43935,38.61039],[-85.42747,38.58673],[-85.56998,38.60616],[-85.57093,38.67871],[-85.68334,38.73673],[-85.68384,38.81541],[-85.4449,38.913],[-85.20317,38.9138],[-85.2015,38.69158],[-85.21326,38.69545],[-85.22606,38.70546],[-85.2465,38.73182],[-85.25885,38.73775],[-85.27545,38.74117],[-85.28923,38.74241],[-85.33329,38.74048],[-85.41093,38.73708],[-85.42202,38.73483],[-85.43407,38.72946],[-85.45211,38.70935],[-85.45698,38.68914],[-85.43935,38.61039]]]}},{"type":"Feature","properties":{"zone_id":"county_marion","zone_name":"Marion County (archive coverage grade: learning)","coverage_score":50,"evidence_tier":"baseline","updated_at":"2026-08-04T14:17"},"geometry":{"type":"Polygon","coordinates":[[[-85.93759,39.92714],[-85.93808,39.9232],[-85.93808,39.88718],[-85.9517,39.72642],[-85.95172,39.69714],[-85.95208,39.63835],[-86.0447,39.63722],[-86.24292,39.63374],[-86.24989,39.63365],[-86.2685,39.63305],[-86.26924,39.63327],[-86.32634,39.63218],[-86.32658,39.6829],[-86.32629,39.92403],[-86.26331,39.92489],[-86.24109,39.92609],[-86.23974,39.92605],[-86.17224,39.9269],[-85.93759,39.92714]]]}},{"type":"Feature","properties":{"zone_id":"county_martin","zone_name":"Martin County (archive coverage grade: learning)","coverage_score":50,"evidence_tier":"baseline","updated_at":"2026-08-04T14:17"},"geometry":{"type":"Polygon","coordinates":[[[-86.68236,38.52638],[-86.92419,38.50536],[-86.92294,38.81724],[-86.90425,38.9042],[-86.68285,38.9047],[-86.6831,38.68656],[-86.68236,38.52638]]]}},{"type":"Feature","properties":{"zone_id":"county_miami","zone_name":"Miami County (archive coverage grade: learning)","coverage_score":50,"evidence_tier":"baseline","updated_at":"2026-08-04T14:17"},"geometry":{"type":"Polygon","coordinates":[[[-85.86479,40.65169],[-85.86364,40.56553],[-86.12742,40.5631],[-86.16502,40.56265],[-86.16901,40.90984],[-86.16846,40.9961],[-85.94644,40.9992],[-85.93953,40.65099],[-85.86479,40.65169]]]}},{"type":"Feature","properties":{"zone_id":"county_morgan","zone_name":"Morgan County (archive coverage grade: learning)","coverage_score":50,"evidence_tier":"baseline","updated_at":"2026-08-04T14:17"},"geometry":{"type":"Polygon","coordinates":[[[-86.24989,39.63365],[-86.25131,39.43059],[-86.25168,39.34167],[-86.38139,39.33975],[-86.57428,39.33968],[-86.63084,39.34076],[-86.63082,39.34695],[-86.63221,39.47021],[-86.68571,39.47006],[-86.65665,39.60139],[-86.4656,39.60077],[-86.32634,39.63218],[-86.26924,39.63327],[-86.2685,39.63305],[-86.24989,39.63365]]]}},{"type":"Feature","properties":{"zone_id":"county_benton","zone_name":"Benton County (archive coverage grade: learning)","coverage_score":50,"evidence_tier":"baseline","updated_at":"2026-08-04T14:17"},"geometry":{"type":"Polygon","coordinates":[[[-87.09839,40.73654],[-87.09682,40.73649],[-87.09536,40.56289],[-87.09368,40.47575],[-87.52651,40.47688],[-87.5265,40.47716],[-87.52638,40.49124],[-87.52638,40.49157],[-87.52635,40.53511],[-87.52629,40.53541],[-87.52613,40.73689],[-87.2673,40.73658],[-87.09839,40.73654]]]}},{"type":"Feature","properties":{"zone_id":"county_brown","zone_name":"Brown County (archive coverage grade: learning)","coverage_score":50,"evidence_tier":"baseline","updated_at":"2026-08-04T14:17"},"geometry":{"type":"Polygon","coordinates":[[[-86.0856,39.34419],[-86.08029,39.15254],[-86.08027,39.05027],[-86.31813,39.04881],[-86.37007,39.04838],[-86.38139,39.33975],[-86.25168,39.34167],[-86.0856,39.34419]]]}},{"type":"Feature","properties":{"zone_id":"county_carroll","zone_name":"Carroll County (archive coverage grade: learning)","coverage_score":50,"evidence_tier":"baseline","updated_at":"2026-08-04T14:17"},"geometry":{"type":"Polygon","coordinates":[[[-86.77129,40.56208],[-86.74776,40.73754],[-86.6971,40.7371],[-86.67815,40.7369],[-86.67799,40.73675],[-86.58174,40.73577],[-86.52516,40.69242],[-86.37352,40.69246],[-86.37442,40.56136],[-86.37576,40.43185],[-86.69467,40.43216],[-86.69535,40.56187],[-86.77129,40.56208]]]}},{"type":"Feature","properties":{"zone_id":"county_clark","zone_name":"Clark County (archive coverage grade: learning)","coverage_score":50,"evidence_tier":"baseline","updated_at":"2026-08-04T14:17"},"geometry":{"type":"Polygon","coordinates":[[[-85.63804,38.38027],[-85.63878,38.36144],[-85.65364,38.32711],[-85.67502,38.30132],[-85.68356,38.29547],[-85.74486,38.26717],[-85.75096,38.26787],[-85.76106,38.27257],[-85.76656,38.27767],[-85.76596,38.28047],[-85.77336,38.28617],[-85.78096,38.28847],[-85.79156,38.28857],[-85.79157,38.28857],[-85.76084,38.35022],[-85.8077,38.40444],[-85.99462,38.41835],[-85.99332,38.48854],[-85.88478,38.50347],[-85.84789,38.56127],[-85.79358,38.60481],[-85.56998,38.60616],[-85.42747,38.58673],[-85.41582,38.56356],[-85.4156,38.54634],[-85.41732,38.54076],[-85.42308,38.53158],[-85.43293,38.52407],[-85.43314,38.52391],[-85.46252,38.5126],[-85.60763,38.4393],[-85.62052,38.4231],[-85.63294,38.39567],[-85.63804,38.38034],[-85.63804,38.38027]]]}},{"type":"Feature","properties":{"zone_id":"county_crawford","zone_name":"Crawford County (archive coverage grade: learning)","coverage_score":50,"evidence_tier":"baseline","updated_at":"2026-08-04T14:17"},"geometry":{"type":"Polygon","coordinates":[[[-86.32345,38.13903],[-86.32679,38.1346],[-86.33257,38.13013],[-86.39866,38.10624],[-86.42651,38.08178],[-86.46043,38.20683],[-86.57168,38.20753],[-86.57014,38.26633],[-86.67951,38.26309],[-86.68142,38.39477],[-86.30887,38.39407],[-86.30867,38.42287],[-86.25504,38.42269],[-86.31429,38.14261],[-86.32345,38.13903]]]}},{"type":"Feature","properties":{"zone_id":"county_decatur","zone_name":"Decatur County (archive coverage grade: learning)","coverage_score":50,"evidence_tier":"baseline","updated_at":"2026-08-04T14:17"},"geometry":{"type":"Polygon","coordinates":[[[-85.68678,39.13086],[-85.68729,39.18561],[-85.68716,39.18903],[-85.6873,39.19008],[-85.68452,39.35005],[-85.63063,39.35021],[-85.62933,39.45275],[-85.29757,39.45327],[-85.29654,39.26829],[-85.43791,39.19713],[-85.44005,39.19562],[-85.56632,39.13276],[-85.68678,39.13086]]]}},{"type":"Feature","properties":{"zone_id":"county_delaware","zone_name":"Delaware County (archive coverage grade: learning)","coverage_score":50,"evidence_tier":"baseline","updated_at":"2026-08-04T14:17"},"geometry":{"type":"Polygon","coordinates":[[[-85.44433,40.37914],[-85.2199,40.37903],[-85.22003,40.37504],[-85.21876,40.30671],[-85.21439,40.07689],[-85.21603,40.07683],[-85.5762,40.07714],[-85.57859,40.37952],[-85.5523,40.37867],[-85.44433,40.37914]]]}},{"type":"Feature","properties":{"zone_id":"county_fountain","zone_name":"Fountain County (archive coverage grade: learning)","coverage_score":50,"evidence_tier":"baseline","updated_at":"2026-08-04T14:17"},"geometry":{"type":"Polygon","coordinates":[[[-87.09196,40.17125],[-87.09002,39.95357],[-87.09101,39.95301],[-87.1259,39.95315],[-87.12605,39.95298],[-87.17872,39.9533],[-87.17942,39.95303],[-87.19012,39.95307],[-87.19029,39.95338],[-87.20413,39.95328],[-87.42022,39.95245],[-87.40667,40.12751],[-87.43876,40.16569],[-87.33927,40.22317],[-87.31189,40.25004],[-87.29419,40.25797],[-87.2449,40.30925],[-87.09215,40.36661],[-87.09256,40.21481],[-87.09196,40.17125]]]}},{"type":"Feature","properties":{"zone_id":"county_allen","zone_name":"Allen County (archive coverage grade: learning)","coverage_score":50,"evidence_tier":"baseline","updated_at":"2026-08-04T14:17"},"geometry":{"type":"Polygon","coordinates":[[[-84.80358,41.27127],[-84.80358,41.27108],[-84.80358,41.27094],[-84.80349,41.25256],[-84.80349,41.25253],[-84.80347,41.17389],[-84.80359,41.1732],[-84.80341,41.16465],[-84.80338,41.09687],[-84.80337,41.0893],[-84.80331,40.98939],[-84.80331,40.98921],[-84.80294,40.92257],[-85.07386,40.91782],[-85.16706,40.91658],[-85.33603,40.91708],[-85.33537,41.00205],[-85.33564,41.00525],[-85.33855,41.17912],[-85.30778,41.26416],[-85.19209,41.26421],[-84.80647,41.2709],[-84.80358,41.27127]]]}},{"type":"Feature","properties":{"zone_id":"county_adams","zone_name":"Adams County (archive coverage grade: learning)","coverage_score":50,"evidence_tier":"baseline","updated_at":"2026-08-04T14:17"},"geometry":{"type":"Polygon","coordinates":[[[-84.80294,40.92257],[-84.80294,40.92238],[-84.80254,40.76552],[-84.80227,40.7423],[-84.80212,40.72816],[-84.80212,40.72815],[-84.80218,40.7186],[-84.80209,40.70248],[-84.80213,40.69141],[-84.80216,40.68932],[-84.80222,40.67478],[-84.80219,40.6603],[-84.80214,40.64486],[-84.80227,40.57221],[-84.80227,40.57221],[-85.06848,40.56824],[-85.07386,40.91782],[-84.80294,40.92257]]]}},{"type":"Feature","properties":{"zone_id":"county_fulton","zone_name":"Fulton County (archive coverage grade: learning)","coverage_score":50,"evidence_tier":"baseline","updated_at":"2026-08-04T14:17"},"geometry":{"type":"Polygon","coordinates":[[[-85.94556,41.04288],[-85.9454,41.00015],[-85.94644,40.9992],[-86.16846,40.9961],[-86.16901,40.90984],[-86.46851,40.90989],[-86.46705,41.17144],[-86.07755,41.17287],[-86.07594,41.08488],[-85.94556,41.04288]]]}},{"type":"Feature","properties":{"zone_id":"county_grant","zone_name":"Grant County (archive coverage grade: learning)","coverage_score":50,"evidence_tier":"baseline","updated_at":"2026-08-04T14:17"},"geometry":{"type":"Polygon","coordinates":[[[-85.86364,40.56553],[-85.86479,40.65169],[-85.85715,40.65136],[-85.63859,40.65313],[-85.44882,40.65361],[-85.44899,40.65127],[-85.44701,40.56693],[-85.44433,40.37914],[-85.5523,40.37867],[-85.57859,40.37952],[-85.58786,40.37976],[-85.8623,40.37837],[-85.86212,40.40689],[-85.86364,40.56553]]]}},{"type":"Feature","properties":{"zone_id":"county_hendricks","zone_name":"Hendricks County (archive coverage grade: learning)","coverage_score":50,"evidence_tier":"baseline","updated_at":"2026-08-04T14:17"},"geometry":{"type":"Polygon","coordinates":[[[-86.32658,39.6829],[-86.32634,39.63218],[-86.4656,39.60077],[-86.65665,39.60139],[-86.68741,39.63044],[-86.69513,39.86485],[-86.69507,39.92277],[-86.32629,39.92403],[-86.32658,39.6829]]]}},{"type":"Feature","properties":{"zone_id":"county_jay","zone_name":"Jay County (archive coverage grade: learning)","coverage_score":50,"evidence_tier":"baseline","updated_at":"2026-08-04T14:17"},"geometry":{"type":"Polygon","coordinates":[[[-84.80412,40.35276],[-84.80392,40.31012],[-84.80392,40.31009],[-85.21876,40.30671],[-85.22003,40.37504],[-85.2199,40.37903],[-85.20683,40.37918],[-85.20115,40.56724],[-85.06848,40.56824],[-84.80227,40.57221],[-84.80248,40.52805],[-84.80307,40.46539],[-84.80412,40.35284],[-84.80412,40.35276]]]}},{"type":"Feature","properties":{"zone_id":"county_lawrence","zone_name":"Lawrence County (archive coverage grade: learning)","coverage_score":50,"evidence_tier":"baseline","updated_at":"2026-08-04T14:17"},"geometry":{"type":"Polygon","coordinates":[[[-86.57355,38.99215],[-86.31747,38.99087],[-86.28039,38.99103],[-86.27528,38.7638],[-86.3087,38.6881],[-86.6831,38.68656],[-86.68285,38.9047],[-86.68228,38.9924],[-86.57355,38.99215]]]}},{"type":"Feature","properties":{"zone_id":"county_marshall","zone_name":"Marshall County (archive coverage grade: learning)","coverage_score":50,"evidence_tier":"baseline","updated_at":"2026-08-04T14:17"},"geometry":{"type":"Polygon","coordinates":[[[-86.05923,41.43581],[-86.05405,41.17315],[-86.07755,41.17287],[-86.46705,41.17144],[-86.4666,41.43297],[-86.46711,41.47646],[-86.05945,41.47915],[-86.05905,41.44524],[-86.05924,41.44275],[-86.05923,41.43581]]]}},{"type":"Feature","properties":{"zone_id":"county_noble","zone_name":"Noble County (archive coverage grade: learning)","coverage_score":50,"evidence_tier":"baseline","updated_at":"2026-08-04T14:17"},"geometry":{"type":"Polygon","coordinates":[[[-85.65351,41.43686],[-85.65427,41.5157],[-85.65475,41.52335],[-85.19408,41.52644],[-85.19209,41.26421],[-85.30778,41.26416],[-85.53718,41.26616],[-85.65193,41.29478],[-85.65351,41.43686]]]}},{"type":"Feature","properties":{"zone_id":"county_owen","zone_name":"Owen County (archive coverage grade: learning)","coverage_score":50,"evidence_tier":"baseline","updated_at":"2026-08-04T14:17"},"geometry":{"type":"Polygon","coordinates":[[[-86.683,39.16575],[-87.05458,39.16809],[-87.05365,39.34262],[-86.94247,39.34204],[-86.93998,39.47335],[-86.68571,39.47006],[-86.63221,39.47021],[-86.63082,39.34695],[-86.68561,39.33604],[-86.683,39.16575]]]}},{"type":"Feature","properties":{"zone_id":"county_putnam","zone_name":"Putnam County (archive coverage grade: learning)","coverage_score":50,"evidence_tier":"baseline","updated_at":"2026-08-04T14:17"},"geometry":{"type":"Polygon","coordinates":[[[-87.01306,39.60479],[-87.00948,39.86671],[-86.69513,39.86485],[-86.68741,39.63044],[-86.65665,39.60139],[-86.68571,39.47006],[-86.93998,39.47335],[-87.01453,39.47357],[-87.01306,39.60479]]]}},{"type":"Feature","properties":{"zone_id":"county_shelby","zone_name":"Shelby County (archive coverage grade: learning)","coverage_score":50,"evidence_tier":"baseline","updated_at":"2026-08-04T14:17"},"geometry":{"type":"Polygon","coordinates":[[[-85.68452,39.35005],[-85.85406,39.3495],[-85.85746,39.34931],[-85.952,39.34737],[-85.95322,39.38352],[-85.95255,39.43592],[-85.95122,39.43605],[-85.9508,39.49522],[-85.95252,39.60915],[-85.95208,39.63835],[-85.95172,39.69714],[-85.63323,39.69846],[-85.63253,39.6975],[-85.62933,39.45275],[-85.63063,39.35021],[-85.68452,39.35005]]]}},{"type":"Feature","properties":{"zone_id":"county_tippecanoe","zone_name":"Tippecanoe County (archive coverage grade: learning)","coverage_score":50,"evidence_tier":"baseline","updated_at":"2026-08-04T14:17"},"geometry":{"type":"Polygon","coordinates":[[[-87.09368,40.47575],[-87.09536,40.56289],[-86.77129,40.56208],[-86.69535,40.56187],[-86.69467,40.43216],[-86.69564,40.21437],[-87.09256,40.21481],[-87.09215,40.36661],[-87.09278,40.47507],[-87.09368,40.47575]]]}},{"type":"Feature","properties":{"zone_id":"county_vermillion","zone_name":"Vermillion County (archive coverage grade: learning)","coverage_score":50,"evidence_tier":"baseline","updated_at":"2026-08-04T14:17"},"geometry":{"type":"Polygon","coordinates":[[[-87.38242,39.60794],[-87.5322,39.60731],[-87.53236,39.64613],[-87.53244,39.6461],[-87.5327,39.66487],[-87.53307,39.78174],[-87.53306,39.79624],[-87.53306,39.80392],[-87.53314,39.81095],[-87.53323,39.883],[-87.53323,39.88313],[-87.53278,39.97108],[-87.53279,39.97501],[-87.53268,39.97769],[-87.53254,39.98746],[-87.53233,39.99778],[-87.53229,40.00004],[-87.53231,40.01149],[-87.53231,40.01159],[-87.53156,40.133],[-87.53176,40.14427],[-87.53144,40.14803],[-87.53144,40.14812],[-87.40667,40.12751],[-87.42022,39.95245],[-87.35386,39.86208],[-87.39562,39.65295],[-87.38242,39.60794]]]}},{"type":"Feature","properties":{"zone_id":"county_bartholomew","zone_name":"Bartholomew County (archive coverage grade: learning)","coverage_score":50,"evidence_tier":"baseline","updated_at":"2026-08-04T14:17"},"geometry":{"type":"Polygon","coordinates":[[[-85.952,39.34737],[-85.85746,39.34931],[-85.85406,39.3495],[-85.68452,39.35005],[-85.6873,39.19008],[-85.68716,39.18903],[-85.68729,39.18561],[-85.68678,39.13086],[-85.79983,39.1289],[-85.7988,39.06854],[-85.86057,39.04091],[-86.08027,39.05027],[-86.08029,39.15254],[-86.0856,39.34419],[-86.08153,39.34445],[-85.952,39.34737]]]}},{"type":"Feature","properties":{"zone_id":"county_cass","zone_name":"Cass County (archive coverage grade: learning)","coverage_score":50,"evidence_tier":"baseline","updated_at":"2026-08-04T14:17"},"geometry":{"type":"Polygon","coordinates":[[[-86.16502,40.56265],[-86.18404,40.56246],[-86.37442,40.56136],[-86.37352,40.69246],[-86.52516,40.69242],[-86.58174,40.73577],[-86.58153,40.91092],[-86.46851,40.90989],[-86.16901,40.90984],[-86.16502,40.56265]]]}},{"type":"Feature","properties":{"zone_id":"county_daviess","zone_name":"Daviess County (archive coverage grade: learning)","coverage_score":50,"evidence_tier":"baseline","updated_at":"2026-08-04T14:17"},"geometry":{"type":"Polygon","coordinates":[[[-87.2421,38.54493],[-87.27933,38.69331],[-87.24146,38.81748],[-87.19224,38.81469],[-87.09877,38.90397],[-87.03126,38.90252],[-86.90425,38.9042],[-86.92294,38.81724],[-86.92419,38.50536],[-87.07237,38.5147],[-87.2421,38.54493]]]}},{"type":"Feature","properties":{"zone_id":"county_fayette","zone_name":"Fayette County (archive coverage grade: learning)","coverage_score":50,"evidence_tier":"baseline","updated_at":"2026-08-04T14:17"},"geometry":{"type":"Polygon","coordinates":[[[-85.03609,39.52621],[-85.29811,39.52548],[-85.30158,39.78758],[-85.22112,39.78845],[-85.18509,39.71552],[-85.03458,39.71476],[-85.03609,39.52621]]]}},{"type":"Feature","properties":{"zone_id":"county_floyd","zone_name":"Floyd County (archive coverage grade: learning)","coverage_score":50,"evidence_tier":"baseline","updated_at":"2026-08-04T14:17"},"geometry":{"type":"Polygon","coordinates":[[[-85.81616,38.28297],[-85.82376,38.28057],[-85.82936,38.27677],[-85.89766,38.18427],[-85.89955,38.18034],[-86.03256,38.33066],[-86.03282,38.4179],[-86.01445,38.41868],[-86.01414,38.41908],[-85.99462,38.41835],[-85.8077,38.40444],[-85.76084,38.35022],[-85.79157,38.28857],[-85.81616,38.28297]]]}},{"type":"Feature","properties":{"zone_id":"county_warren","zone_name":"Warren County (archive coverage grade: learning)","coverage_score":50,"evidence_tier":"baseline","updated_at":"2026-08-04T14:17"},"geometry":{"type":"Polygon","coordinates":[[[-87.29419,40.25797],[-87.31189,40.25004],[-87.33927,40.22317],[-87.43876,40.16569],[-87.40667,40.12751],[-87.53144,40.14812],[-87.53113,40.17003],[-87.53083,40.19181],[-87.52999,40.25004],[-87.53005,40.25067],[-87.52681,40.46217],[-87.52655,40.47566],[-87.52651,40.47688],[-87.09368,40.47575],[-87.09278,40.47507],[-87.09215,40.36661],[-87.2449,40.30925],[-87.29419,40.25797]]]}},{"type":"Feature","properties":{"zone_id":"county_wayne","zone_name":"Wayne County (archive coverage grade: learning)","coverage_score":50,"evidence_tier":"baseline","updated_at":"2026-08-04T14:17"},"geometry":{"type":"Polygon","coordinates":[[[-84.81419,39.78557],[-84.81413,39.72662],[-85.03458,39.71476],[-85.18509,39.71552],[-85.22112,39.78845],[-85.20147,40.00452],[-84.81067,40.00507],[-84.81219,39.92734],[-84.81236,39.92176],[-84.81241,39.91692],[-84.81241,39.91692],[-84.8127,39.89158],[-84.81279,39.89083],[-84.81305,39.87296],[-84.81346,39.85326],[-84.81355,39.85077],[-84.81367,39.84317],[-84.8137,39.84306],[-84.81379,39.82677],[-84.81385,39.82462],[-84.81418,39.81421],[-84.81412,39.8114],[-84.81421,39.79975],[-84.81418,39.78685],[-84.81419,39.78557]]]}},{"type":"Feature","properties":{"zone_id":"county_harrison","zone_name":"Harrison County (archive coverage grade: learning)","coverage_score":50,"evidence_tier":"baseline","updated_at":"2026-08-04T14:17"},"geometry":{"type":"Polygon","coordinates":[[[-85.89955,38.18034],[-85.90876,38.16117],[-85.90946,38.14007],[-85.90516,38.11107],[-85.90456,38.10027],[-85.90616,38.08617],[-85.91161,38.06689],[-85.92239,38.02868],[-85.93023,38.01831],[-85.9414,38.00983],[-85.94795,38.00708],[-85.95147,38.00561],[-85.99861,37.99777],[-86.02951,37.99264],[-86.17219,38.00992],[-86.17898,38.01131],[-86.22037,38.02792],[-86.26689,38.05712],[-86.27358,38.06744],[-86.27872,38.0893],[-86.27803,38.10243],[-86.27122,38.13011],[-86.28396,38.14319],[-86.30973,38.14439],[-86.31429,38.14261],[-86.25504,38.42269],[-86.03282,38.4179],[-86.03256,38.33066],[-85.89955,38.18034]]]}},{"type":"Feature","properties":{"zone_id":"county_jasper","zone_name":"Jasper County (archive coverage grade: learning)","coverage_score":50,"evidence_tier":"baseline","updated_at":"2026-08-04T14:17"},"geometry":{"type":"Polygon","coordinates":[[[-87.21886,41.24203],[-87.13165,41.28616],[-86.96813,41.21966],[-86.93008,41.2368],[-86.92965,41.22971],[-86.93017,41.17232],[-86.93031,41.1709],[-86.93076,40.91242],[-86.98644,40.83792],[-87.09979,40.83761],[-87.09839,40.73654],[-87.2673,40.73658],[-87.27588,41.2186],[-87.22637,41.23551],[-87.21886,41.24203]]]}},{"type":"Feature","properties":{"zone_id":"county_johnson","zone_name":"Johnson County (archive coverage grade: learning)","coverage_score":50,"evidence_tier":"baseline","updated_at":"2026-08-04T14:17"},"geometry":{"type":"Polygon","coordinates":[[[-85.95252,39.60915],[-85.9508,39.49522],[-85.95122,39.43605],[-85.95255,39.43592],[-85.95322,39.38352],[-85.952,39.34737],[-86.08153,39.34445],[-86.0856,39.34419],[-86.25168,39.34167],[-86.25131,39.43059],[-86.24989,39.63365],[-86.24292,39.63374],[-86.0447,39.63722],[-85.95208,39.63835],[-85.95252,39.60915]]]}},{"type":"Feature","properties":{"zone_id":"county_knox","zone_name":"Knox County (archive coverage grade: learning)","coverage_score":50,"evidence_tier":"baseline","updated_at":"2026-08-04T14:17"},"geometry":{"type":"Polygon","coordinates":[[[-87.52819,38.85169],[-87.53206,38.8525],[-87.53725,38.85359],[-87.55052,38.85956],[-87.55338,38.86334],[-87.5408,38.89639],[-87.52811,38.90803],[-87.24103,38.90787],[-87.09877,38.90397],[-87.19224,38.81469],[-87.24146,38.81748],[-87.27933,38.69331],[-87.2421,38.54493],[-87.46289,38.53352],[-87.59932,38.45072],[-87.74,38.4157],[-87.65614,38.52167],[-87.66923,38.54174],[-87.67007,38.54524],[-87.65153,38.56817],[-87.62735,38.60724],[-87.62012,38.63949],[-87.60018,38.66246],[-87.59368,38.6674],[-87.5794,38.67247],[-87.54005,38.67914],[-87.53123,38.68404],[-87.51961,38.6972],[-87.49851,38.75898],[-87.49521,38.78306],[-87.52589,38.8488],[-87.52819,38.85169]]]}},{"type":"Feature","properties":{"zone_id":"county_lake","zone_name":"Lake County (archive coverage grade: learning)","coverage_score":50,"evidence_tier":"baseline","updated_at":"2026-08-04T14:17"},"geometry":{"type":"Polygon","coordinates":[[[-87.52677,41.29818],[-87.52562,41.45362],[-87.52567,41.47011],[-87.52567,41.47028],[-87.52464,41.56334],[-87.52464,41.62253],[-87.52474,41.63244],[-87.52464,41.63493],[-87.52484,41.69163],[-87.52494,41.70264],[-87.52404,41.70833],[-87.52054,41.70994],[-87.51524,41.70423],[-87.51104,41.69653],[-87.50534,41.69154],[-87.47074,41.67283],[-87.46314,41.67554],[-87.45304,41.67303],[-87.44611,41.66934],[-87.44199,41.67191],[-87.43853,41.67068],[-87.43719,41.66901],[-87.43485,41.66689],[-87.43295,41.6651],[-87.4324,41.66053],[-87.43894,41.65434],[-87.42984,41.64603],[-87.42344,41.64283],[-87.39454,41.63723],[-87.36544,41.62954],[-87.32434,41.62304],[-87.28764,41.62224],[-87.27844,41.61974],[-87.26154,41.62034],[-87.22264,41.62416],[-87.21886,41.24203],[-87.22637,41.23551],[-87.27588,41.2186],[-87.41442,41.16225],[-87.52657,41.1661],[-87.52677,41.29805],[-87.52677,41.29818]]]}},{"type":"Feature","properties":{"zone_id":"county_montgomery","zone_name":"Montgomery County (archive coverage grade: learning)","coverage_score":50,"evidence_tier":"baseline","updated_at":"2026-08-04T14:17"},"geometry":{"type":"Polygon","coordinates":[[[-87.09101,39.95301],[-87.09002,39.95357],[-87.09196,40.17125],[-87.09256,40.21481],[-86.69564,40.21437],[-86.6958,40.17866],[-86.69507,39.92277],[-86.69513,39.86485],[-87.00948,39.86671],[-87.09154,39.86727],[-87.09101,39.95301]]]}},{"type":"Feature","properties":{"zone_id":"county_newton","zone_name":"Newton County (archive coverage grade: learning)","coverage_score":50,"evidence_tier":"baseline","updated_at":"2026-08-04T14:17"},"geometry":{"type":"Polygon","coordinates":[[[-87.27588,41.2186],[-87.2673,40.73658],[-87.52613,40.73689],[-87.52613,40.73695],[-87.52578,40.85436],[-87.52611,40.8797],[-87.52596,40.88062],[-87.52644,40.89421],[-87.52608,40.91191],[-87.5263,41.01035],[-87.52631,41.01035],[-87.52635,41.01058],[-87.52652,41.02484],[-87.52671,41.12148],[-87.5267,41.13966],[-87.5267,41.14922],[-87.52669,41.15396],[-87.52672,41.15945],[-87.52666,41.16009],[-87.52657,41.16387],[-87.52657,41.1661],[-87.41442,41.16225],[-87.27588,41.2186]]]}},{"type":"Feature","properties":{"zone_id":"county_clinton","zone_name":"Clinton County (archive coverage grade: learning)","coverage_score":50,"evidence_tier":"baseline","updated_at":"2026-08-04T14:17"},"geometry":{"type":"Polygon","coordinates":[[[-86.24274,40.21583],[-86.24237,40.18078],[-86.39885,40.17719],[-86.6958,40.17866],[-86.69564,40.21437],[-86.69467,40.43216],[-86.37576,40.43185],[-86.24299,40.37366],[-86.24274,40.21583]]]}},{"type":"Feature","properties":{"zone_id":"county_perry","zone_name":"Perry County (archive coverage grade: learning)","coverage_score":50,"evidence_tier":"baseline","updated_at":"2026-08-04T14:17"},"geometry":{"type":"Polygon","coordinates":[[[-86.6553,37.84251],[-86.66029,37.86506],[-86.70916,37.89764],[-86.71846,37.89312],[-86.72351,37.89283],[-86.73146,37.89434],[-86.74088,37.90257],[-86.75099,37.91289],[-86.77018,37.94026],[-86.78769,37.97145],[-86.79498,37.98898],[-86.81478,37.99864],[-86.77237,37.99817],[-86.7915,38.20513],[-86.79215,38.2491],[-86.67951,38.26309],[-86.57014,38.26633],[-86.57168,38.20753],[-86.46043,38.20683],[-86.42651,38.08178],[-86.43009,38.07864],[-86.43279,38.06717],[-86.43824,38.06043],[-86.45219,38.05049],[-86.46688,38.0466],[-86.49085,38.0458],[-86.49086,38.0458],[-86.51176,38.04445],[-86.51729,38.04263],[-86.52183,38.03833],[-86.52497,38.02788],[-86.52517,37.96823],[-86.60462,37.85827],[-86.63427,37.84385],[-86.64803,37.84143],[-86.65529,37.84251],[-86.6553,37.84251]]]}},{"type":"Feature","properties":{"zone_id":"county_posey","zone_name":"Posey County (archive coverage grade: learning)","coverage_score":50,"evidence_tier":"baseline","updated_at":"2026-08-04T14:17"},"geometry":{"type":"Polygon","coordinates":[[[-87.70042,37.90086],[-87.76226,37.89091],[-87.78364,37.87776],[-87.7909,37.87571],[-87.83058,37.87652],[-87.84119,37.88233],[-87.85724,37.90065],[-87.86556,37.91506],[-87.87254,37.921],[-87.88332,37.92624],[-87.89806,37.92751],[-87.90479,37.92489],[-87.92742,37.90204],[-87.93678,37.89259],[-87.94007,37.88767],[-87.94084,37.88334],[-87.94,37.87504],[-87.93623,37.86794],[-87.9273,37.85871],[-87.91489,37.84962],[-87.91028,37.84342],[-87.90777,37.83761],[-87.9038,37.81776],[-87.90681,37.80762],[-87.94376,37.77684],[-87.97087,37.78346],[-87.97639,37.788],[-88.00471,37.80015],[-88.01731,37.80191],[-88.02803,37.79922],[-88.02779,37.8283],[-88.04945,37.84519],[-88.07145,37.89581],[-88.05537,37.89124],[-88.02112,37.88806],[-88.01707,37.88922],[-88.01345,37.89395],[-88.01257,37.97706],[-88.04153,38.03735],[-88.04213,38.04635],[-88.01312,38.10353],[-87.97427,38.12198],[-87.94218,38.13176],[-87.92783,38.14155],[-87.91103,38.16219],[-87.91079,38.16767],[-87.91567,38.17332],[-87.92886,38.17677],[-87.94069,38.18126],[-87.95131,38.1931],[-87.95906,38.20371],[-87.9611,38.21473],[-87.95534,38.23001],[-87.79917,38.22858],[-87.68837,38.16842],[-87.70042,37.90086]]]}},{"type":"Feature","properties":{"zone_id":"county_scott","zone_name":"Scott County (archive coverage grade: learning)","coverage_score":50,"evidence_tier":"baseline","updated_at":"2026-08-04T14:17"},"geometry":{"type":"Polygon","coordinates":[[[-85.56998,38.60616],[-85.79358,38.60481],[-85.84789,38.56127],[-85.88564,38.57541],[-85.88833,38.73444],[-85.79536,38.80751],[-85.68384,38.81541],[-85.68334,38.73673],[-85.57093,38.67871],[-85.56998,38.60616]]]}},{"type":"Feature","properties":{"zone_id":"county_spencer","zone_name":"Spencer County (archive coverage grade: learning)","coverage_score":50,"evidence_tier":"baseline","updated_at":"2026-08-04T14:17"},"geometry":{"type":"Polygon","coordinates":[[[-86.81478,37.99864],[-86.81527,37.99888],[-86.82349,37.99894],[-86.85595,37.98729],[-86.88496,37.96437],[-86.90241,37.94616],[-86.91933,37.93666],[-86.97883,37.93021],[-86.97896,37.9302],[-87.01032,37.91967],[-87.03344,37.90659],[-87.04225,37.89829],[-87.04624,37.88987],[-87.04341,37.87994],[-87.04385,37.8708],[-87.05784,37.82746],[-87.06784,37.80606],[-87.0774,37.79621],[-87.09064,37.78781],[-87.11113,37.78251],[-87.11923,37.78285],[-87.12875,37.78573],[-87.13262,37.79101],[-87.20224,37.84379],[-87.26293,37.87285],[-87.26956,37.87716],[-87.268,37.92477],[-87.07233,38.11828],[-87.01745,38.1183],[-87.01749,38.20358],[-86.7915,38.20513],[-86.77237,37.99817],[-86.81478,37.99864]]]}},{"type":"Feature","properties":{"zone_id":"county_switzerland","zone_name":"Switzerland County (archive coverage grade: learning)","coverage_score":50,"evidence_tier":"baseline","updated_at":"2026-08-04T14:17"},"geometry":{"type":"Polygon","coordinates":[[[-84.81318,38.93058],[-84.78952,38.88469],[-84.78511,38.87999],[-84.7858,38.8695],[-84.79108,38.85586],[-84.81335,38.79833],[-84.84441,38.78708],[-84.9443,38.77518],[-84.97343,38.77885],[-84.98463,38.77907],[-84.99594,38.77676],[-85.0242,38.76331],[-85.10096,38.7268],[-85.1069,38.72079],[-85.13868,38.69917],[-85.15616,38.69225],[-85.17253,38.68808],[-85.18936,38.68758],[-85.2015,38.69158],[-85.20317,38.9138],[-85.20285,38.92852],[-85.13583,38.92958],[-85.14031,38.90319],[-84.87075,38.90091],[-84.81318,38.93058]]]}},{"type":"Feature","properties":{"zone_id":"county_vanderburgh","zone_name":"Vanderburgh County (archive coverage grade: learning)","coverage_score":50,"evidence_tier":"baseline","updated_at":"2026-08-04T14:17"},"geometry":{"type":"Polygon","coordinates":[[[-87.45118,37.94103],[-87.5115,37.90643],[-87.55033,37.92489],[-87.55934,37.93115],[-87.57203,37.94747],[-87.57429,37.95484],[-87.57341,37.96264],[-87.57471,37.96774],[-87.58111,37.97344],[-87.58592,37.97544],[-87.59292,37.97584],[-87.60142,37.97254],[-87.62896,37.92671],[-87.62626,37.91614],[-87.62027,37.90692],[-87.59712,37.89239],[-87.59158,37.88719],[-87.58843,37.86879],[-87.58873,37.86098],[-87.5915,37.85664],[-87.6066,37.83867],[-87.6154,37.83197],[-87.64586,37.8259],[-87.67089,37.82843],[-87.67919,37.83632],[-87.6819,37.84641],[-87.68163,37.85592],[-87.66286,37.88558],[-87.66648,37.89579],[-87.67573,37.90193],[-87.68402,37.9035],[-87.70042,37.90086],[-87.68837,38.16842],[-87.46728,38.1654],[-87.45118,37.94103]]]}},{"type":"Feature","properties":{"zone_id":"county_dearborn","zone_name":"Dearborn County (archive coverage grade: learning)","coverage_score":50,"evidence_tier":"baseline","updated_at":"2026-08-04T14:17"},"geometry":{"type":"Polygon","coordinates":[[[-84.81983,39.1565],[-84.81999,39.14908],[-84.82016,39.10548],[-84.8312,39.10192],[-84.88887,39.06638],[-84.89736,39.05738],[-84.89717,39.05241],[-84.88907,39.04082],[-84.87861,39.0303],[-85.13251,38.94805],[-85.06557,39.30723],[-84.92866,39.30593],[-84.81945,39.30515],[-84.81945,39.30515],[-84.81962,39.27159],[-84.81963,39.26185],[-84.81986,39.25102],[-84.8198,39.24781],[-84.81981,39.24433],[-84.8198,39.15761],[-84.81983,39.1565]]]}},{"type":"Feature","properties":{"zone_id":"county_dubois","zone_name":"Dubois County (archive coverage grade: learning)","coverage_score":50,"evidence_tier":"baseline","updated_at":"2026-08-04T14:17"},"geometry":{"type":"Polygon","coordinates":[[[-86.67951,38.26309],[-86.79215,38.2491],[-86.7915,38.20513],[-87.01749,38.20358],[-87.07314,38.20382],[-87.07307,38.2326],[-87.07237,38.5147],[-86.92419,38.50536],[-86.68236,38.52638],[-86.68142,38.39477],[-86.67951,38.26309]]]}},{"type":"Feature","properties":{"zone_id":"county_elkhart","zone_name":"Elkhart County (archive coverage grade: learning)","coverage_score":50,"evidence_tier":"baseline","updated_at":"2026-08-04T14:17"},"geometry":{"type":"Polygon","coordinates":[[[-85.79134,41.75905],[-85.77504,41.75915],[-85.75047,41.75909],[-85.74999,41.75909],[-85.72453,41.75908],[-85.65975,41.7591],[-85.65475,41.52335],[-85.65427,41.5157],[-85.65351,41.43686],[-86.05923,41.43581],[-86.05924,41.44275],[-86.05905,41.44524],[-86.05945,41.47915],[-86.06065,41.6084],[-86.06052,41.60896],[-86.06257,41.76028],[-86.00368,41.76001],[-85.9913,41.75995],[-85.97498,41.75985],[-85.9749,41.75985],[-85.88882,41.75942],[-85.875,41.75934],[-85.87204,41.75937],[-85.79136,41.75905],[-85.79134,41.75905]]]}},{"type":"Feature","properties":{"zone_id":"county_franklin","zone_name":"Franklin County (archive coverage grade: learning)","coverage_score":50,"evidence_tier":"baseline","updated_at":"2026-08-04T14:17"},"geometry":{"type":"Polygon","coordinates":[[[-84.81556,39.51105],[-84.81556,39.51095],[-84.81575,39.47736],[-84.81575,39.47735],[-84.81745,39.39175],[-84.81935,39.30945],[-84.81945,39.30515],[-84.92866,39.30593],[-85.06557,39.30723],[-85.21788,39.30847],[-85.29654,39.26829],[-85.29757,39.45327],[-85.29862,39.52026],[-85.29811,39.52548],[-85.03609,39.52621],[-84.81535,39.52195],[-84.81556,39.51105]]]}}]}