{"type": "FeatureCollection", "generated": "2026-08-05T14:16", "features": [{"type": "Feature", "geometry": {"type": "Point", "coordinates": [-87.43222, 41.63102]}, "properties": {"full_closure": true, "updated_at": "2026-08-05T14:16"}}, {"type": "Feature", "geometry": {"type": "Point", "coordinates": [-87.4319, 41.64062]}, "properties": {"full_closure": true, "updated_at": "2026-08-05T14:16"}}, {"type": "Feature", "geometry": {"type": "Point", "coordinates": [-87.8965205578, 37.9671380466]}, "properties": {"full_closure": false, "updated_at": "2026-08-05T14:16"}}, {"type": "Feature", "geometry": {"type": "Point", "coordinates": [-87.8966600327, 37.9617052201]}, "properties": {"full_closure": false, "updated_at": "2026-08-05T14:16"}}, {"type": "Feature", "geometry": {"type": "Point", "coordinates": [-87.8868954507, 37.9653879]}, "properties": {"full_closure": false, "updated_at": "2026-08-05T14:16"}}, {"type": "Feature", "geometry": {"type": "Point", "coordinates": [-87.8963904707, 37.9764828657]}, "properties": {"full_closure": false, "updated_at": "2026-08-05T14:16"}}, {"type": "Feature", "geometry": {"type": "Point", "coordinates": [-87.8050639359, 38.1842145843]}, "properties": {"full_closure": false, "updated_at": "2026-08-05T14:16"}}, {"type": "Feature", "geometry": {"type": "Point", "coordinates": [-87.6997469989, 37.9510072325]}, "properties": {"full_closure": false, "updated_at": "2026-08-05T14:16"}}, {"type": "Feature", "geometry": {"type": "Point", "coordinates": [-87.6839407412, 37.9654442014]}, "properties": {"full_closure": false, "updated_at": "2026-08-05T14:16"}}, {"type": "Feature", "geometry": {"type": "Point", "coordinates": [-87.5983688858, 38.3914219385]}, "properties": {"full_closure": false, "updated_at": "2026-08-05T14:16"}}, {"type": "Feature", "geometry": {"type": "Point", "coordinates": [-87.5714636472, 38.3168860279]}, "properties": {"full_closure": false, "updated_at": "2026-08-05T14:16"}}, {"type": "Feature", "geometry": {"type": "Point", "coordinates": [-87.5474163023, 37.984740014]}, "properties": {"full_closure": false, "updated_at": "2026-08-05T14:16"}}, {"type": "Feature", "geometry": {"type": "Point", "coordinates": [-87.5470220175, 37.9847655147]}, "properties": {"full_closure": false, "updated_at": "2026-08-05T14:16"}}, {"type": "Feature", "geometry": {"type": "Point", "coordinates": [-87.5345618156, 38.6203887196]}, "properties": {"full_closure": false, "updated_at": "2026-08-05T14:16"}}, {"type": "Feature", "geometry": {"type": "Point", "coordinates": [-87.5320298103, 38.6314072224]}, "properties": {"full_closure": false, "updated_at": "2026-08-05T14:16"}}, {"type": "Feature", "geometry": {"type": "Point", "coordinates": [-87.5130813447, 38.7074974186]}, "properties": {"full_closure": false, "updated_at": "2026-08-05T14:16"}}, {"type": "Feature", "geometry": {"type": "Point", "coordinates": [-87.4901632097, 38.6825743706]}, "properties": {"full_closure": false, "updated_at": "2026-08-05T14:16"}}, {"type": "Feature", "geometry": {"type": "Point", "coordinates": [-87.4717793491, 37.9765512496]}, "properties": {"full_closure": false, "updated_at": "2026-08-05T14:16"}}, {"type": "Feature", "geometry": {"type": "Point", "coordinates": [-87.4634430435, 37.9768234633]}, "properties": {"full_closure": false, "updated_at": "2026-08-05T14:16"}}, {"type": "Feature", "geometry": {"type": "Point", "coordinates": [-87.4626115587, 37.976645137]}, "properties": {"full_closure": false, "updated_at": "2026-08-05T14:16"}}, {"type": "Feature", "geometry": {"type": "Point", "coordinates": [-87.4543436494, 37.9768610578]}, "properties": {"full_closure": false, "updated_at": "2026-08-05T14:16"}}, {"type": "Feature", "geometry": {"type": "Point", "coordinates": [-87.4777593341, 38.6755175011]}, "properties": {"full_closure": false, "updated_at": "2026-08-05T14:16"}}, {"type": "Feature", "geometry": {"type": "Point", "coordinates": [-87.4057728675, 38.6797982818]}, "properties": {"full_closure": false, "updated_at": "2026-08-05T14:16"}}, {"type": "Feature", "geometry": {"type": "Point", "coordinates": [-87.3109286156, 38.4255543648]}, "properties": {"full_closure": false, "updated_at": "2026-08-05T14:16"}}, {"type": "Feature", "geometry": {"type": "Point", "coordinates": [-87.2916663315, 38.5274743049]}, "properties": {"full_closure": false, "updated_at": "2026-08-05T14:16"}}, {"type": "Feature", "geometry": {"type": "Point", "coordinates": [-87.2897686687, 38.0476512363]}, "properties": {"full_closure": false, "updated_at": "2026-08-05T14:16"}}, {"type": "Feature", "geometry": {"type": "Point", "coordinates": [-87.2907677915, 38.5218442982]}, "properties": {"full_closure": false, "updated_at": "2026-08-05T14:16"}}, {"type": "Feature", "geometry": {"type": "Point", "coordinates": [-87.286873224, 38.506298246]}, "properties": {"full_closure": false, "updated_at": "2026-08-05T14:16"}}, {"type": "Feature", "geometry": {"type": "Point", "coordinates": [-87.2641964879, 38.1993637031]}, "properties": {"full_closure": false, "updated_at": "2026-08-05T14:16"}}, {"type": "Feature", "geometry": {"type": "Point", "coordinates": [-87.2556348767, 38.1997620199]}, "properties": {"full_closure": false, "updated_at": "2026-08-05T14:16"}}, {"type": "Feature", "geometry": {"type": "Point", "coordinates": [-87.0719759788, 37.8942610737]}, "properties": {"full_closure": false, "updated_at": "2026-08-05T14:16"}}, {"type": "Feature", "geometry": {"type": "Point", "coordinates": [-86.9053236271, 38.5131848507]}, "properties": {"full_closure": false, "updated_at": "2026-08-05T14:16"}}, {"type": "Feature", "geometry": {"type": "Point", "coordinates": [-86.9053236271, 38.519123237]}, "properties": {"full_closure": false, "updated_at": "2026-08-05T14:16"}}, {"type": "Feature", "geometry": {"type": "Point", "coordinates": [-86.8712448205, 38.302800404]}, "properties": {"full_closure": false, "updated_at": "2026-08-05T14:16"}}, {"type": "Feature", "geometry": {"type": "Point", "coordinates": [-86.8718375887, 38.302567028]}, "properties": {"full_closure": false, "updated_at": "2026-08-05T14:16"}}, {"type": "Feature", "geometry": {"type": "Point", "coordinates": [-86.8726006772, 38.3006009966]}, "properties": {"full_closure": false, "updated_at": "2026-08-05T14:16"}}, {"type": "Feature", "geometry": {"type": "Point", "coordinates": [-86.8725617851, 38.0012060813]}, "properties": {"full_closure": false, "updated_at": "2026-08-05T14:16"}}, {"type": "Feature", "geometry": {"type": "Point", "coordinates": [-86.8678558494, 38.0012517213]}, "properties": {"full_closure": false, "updated_at": "2026-08-05T14:16"}}, {"type": "Feature", "geometry": {"type": "Point", "coordinates": [-86.7632993187, 37.9419104936]}, "properties": {"full_closure": false, "updated_at": "2026-08-05T14:16"}}, {"type": "Feature", "geometry": {"type": "Point", "coordinates": [-86.7285861696, 38.6899933871]}, "properties": {"full_closure": false, "updated_at": "2026-08-05T14:16"}}, {"type": "Feature", "geometry": {"type": "Point", "coordinates": [-86.7143409575, 38.6970690432]}, "properties": {"full_closure": false, "updated_at": "2026-08-05T14:16"}}, {"type": "Feature", "geometry": {"type": "Point", "coordinates": [-86.7098951961, 38.2229604302]}, "properties": {"full_closure": false, "updated_at": "2026-08-05T14:16"}}, {"type": "Feature", "geometry": {"type": "Point", "coordinates": [-86.8048024799, 38.2057232066]}, "properties": {"full_closure": false, "updated_at": "2026-08-05T14:16"}}, {"type": "Feature", "geometry": {"type": "Point", "coordinates": [-86.6288348163, 38.2308112471]}, "properties": {"full_closure": false, "updated_at": "2026-08-05T14:16"}}, {"type": "Feature", "geometry": {"type": "Point", "coordinates": [-86.449175092, 38.5477518192]}, "properties": {"full_closure": false, "updated_at": "2026-08-05T14:16"}}, {"type": "Feature", "geometry": {"type": "Point", "coordinates": [-86.4477937544, 38.5471013244]}, "properties": {"full_closure": false, "updated_at": "2026-08-05T14:16"}}, {"type": "Feature", "geometry": {"type": "Point", "coordinates": [-86.2869550908, 38.225363681]}, "properties": {"full_closure": false, "updated_at": "2026-08-05T14:16"}}, {"type": "Feature", "geometry": {"type": "Point", "coordinates": [-86.183912667, 38.0470035032]}, "properties": {"full_closure": false, "updated_at": "2026-08-05T14:16"}}, {"type": "Feature", "geometry": {"type": "Point", "coordinates": [-86.1907321834, 38.0302731994]}, "properties": {"full_closure": false, "updated_at": "2026-08-05T14:16"}}, {"type": "Feature", "geometry": {"type": "Point", "coordinates": [-86.0120648765, 38.2215791029]}, "properties": {"full_closure": false, "updated_at": "2026-08-05T14:16"}}, {"type": "Feature", "geometry": {"type": "Point", "coordinates": [-86.0082159066, 38.2231159653]}, "properties": {"full_closure": false, "updated_at": "2026-08-05T14:16"}}, {"type": "Feature", "geometry": {"type": "Point", "coordinates": [-85.9106398248, 38.1471182932]}, "properties": {"full_closure": false, "updated_at": "2026-08-05T14:16"}}, {"type": "Feature", "geometry": {"type": "Point", "coordinates": [-85.9094046675, 38.1630385507]}, "properties": {"full_closure": false, "updated_at": "2026-08-05T14:16"}}, {"type": "Feature", "geometry": {"type": "Point", "coordinates": [-85.9077819311, 38.1713587488]}, "properties": {"full_closure": false, "updated_at": "2026-08-05T14:16"}}, {"type": "Feature", "geometry": {"type": "Point", "coordinates": [-85.9021774553, 38.1779945358]}, "properties": {"full_closure": false, "updated_at": "2026-08-05T14:16"}}, {"type": "Feature", "geometry": {"type": "Point", "coordinates": [-85.8448438965, 38.2680215445]}, "properties": {"full_closure": false, "updated_at": "2026-08-05T14:16"}}, {"type": "Feature", "geometry": {"type": "Point", "coordinates": [-85.7786778234, 38.5699403727]}, "properties": {"full_closure": false, "updated_at": "2026-08-05T14:16"}}, {"type": "Feature", "geometry": {"type": "Point", "coordinates": [-85.7739464067, 38.5276982344]}, "properties": {"full_closure": false, "updated_at": "2026-08-05T14:16"}}, {"type": "Feature", "geometry": {"type": "Point", "coordinates": [-85.7449128352, 38.3572760224]}, "properties": {"full_closure": false, "updated_at": "2026-08-05T14:16"}}, {"type": "Feature", "geometry": {"type": "Point", "coordinates": [-85.7448015236, 38.360863523]}, "properties": {"full_closure": false, "updated_at": "2026-08-05T14:16"}}, {"type": "Feature", "geometry": {"type": "Point", "coordinates": [-85.7448350512, 38.3615756388]}, "properties": {"full_closure": false, "updated_at": "2026-08-05T14:16"}}, {"type": "Feature", "geometry": {"type": "Point", "coordinates": [-85.714277985, 38.3441613978]}, "properties": {"full_closure": false, "updated_at": "2026-08-05T14:16"}}, {"type": "Feature", "geometry": {"type": "Point", "coordinates": [-87.4230878678, 39.4664499726]}, "properties": {"full_closure": false, "updated_at": "2026-08-05T14:16"}}, {"type": "Feature", "geometry": {"type": "Point", "coordinates": [-87.41812444, 39.4654843279]}, "properties": {"full_closure": false, "updated_at": "2026-08-05T14:16"}}, {"type": "Feature", "geometry": {"type": "Point", "coordinates": [-87.4153282371, 39.4675174528]}, "properties": {"full_closure": false, "updated_at": "2026-08-05T14:16"}}, {"type": "Feature", "geometry": {"type": "Point", "coordinates": [-87.4166304496, 39.4654374139]}, "properties": {"full_closure": false, "updated_at": "2026-08-05T14:16"}}, {"type": "Feature", "geometry": {"type": "Point", "coordinates": [-87.3420958843, 39.4399456935]}, "properties": {"full_closure": false, "updated_at": "2026-08-05T14:16"}}, {"type": "Feature", "geometry": {"type": "Point", "coordinates": [-87.3545842495, 39.6829725942]}, "properties": {"full_closure": false, "updated_at": "2026-08-05T14:16"}}, {"type": "Feature", "geometry": {"type": "Point", "coordinates": [-87.2716610756, 39.4933605265]}, "properties": {"full_closure": false, "updated_at": "2026-08-05T14:16"}}, {"type": "Feature", "geometry": {"type": "Point", "coordinates": [-87.215279701, 39.448193507]}, "properties": {"full_closure": false, "updated_at": "2026-08-05T14:16"}}, {"type": "Feature", "geometry": {"type": "Point", "coordinates": [-87.2207379963, 39.4482954488]}, "properties": {"full_closure": false, "updated_at": "2026-08-05T14:16"}}, {"type": "Feature", "geometry": {"type": "Point", "coordinates": [-87.2153159108, 39.4455716418]}, "properties": {"full_closure": false, "updated_at": "2026-08-05T14:16"}}, {"type": "Feature", "geometry": {"type": "Point", "coordinates": [-87.2012222435, 39.4478542176]}, "properties": {"full_closure": false, "updated_at": "2026-08-05T14:16"}}, {"type": "Feature", "geometry": {"type": "Point", "coordinates": [-87.2006603207, 39.4478957713]}, "properties": {"full_closure": false, "updated_at": "2026-08-05T14:16"}}, {"type": "Feature", "geometry": {"type": "Point", "coordinates": [-87.1989235904, 39.4587372535]}, "properties": {"full_closure": false, "updated_at": "2026-08-05T14:16"}}, {"type": "Feature", "geometry": {"type": "Point", "coordinates": [-87.1855246153, 39.0638812206]}, "properties": {"full_closure": false, "updated_at": "2026-08-05T14:16"}}, {"type": "Feature", "geometry": {"type": "Point", "coordinates": [-87.0699884619, 38.8118649031]}, "properties": {"full_closure": false, "updated_at": "2026-08-05T14:16"}}, {"type": "Feature", "geometry": {"type": "Point", "coordinates": [-87.0703304436, 38.863192973]}, "properties": {"full_closure": false, "updated_at": "2026-08-05T14:16"}}, {"type": "Feature", "geometry": {"type": "Point", "coordinates": [-86.9885042931, 39.5503910143]}, "properties": {"full_closure": false, "updated_at": "2026-08-05T14:16"}}, {"type": "Feature", "geometry": {"type": "Point", "coordinates": [-86.9220981623, 38.918670449]}, "properties": {"full_closure": false, "updated_at": "2026-08-05T14:16"}}, {"type": "Feature", "geometry": {"type": "Point", "coordinates": [-86.8481925751, 39.6259367751]}, "properties": {"full_closure": false, "updated_at": "2026-08-05T14:16"}}, {"type": "Feature", "geometry": {"type": "Point", "coordinates": [-86.8334042157, 39.6046199547]}, "properties": {"full_closure": false, "updated_at": "2026-08-05T14:16"}}, {"type": "Feature", "geometry": {"type": "Point", "coordinates": [-86.8447124089, 38.9592294654]}, "properties": {"full_closure": false, "updated_at": "2026-08-05T14:16"}}, {"type": "Feature", "geometry": {"type": "Point", "coordinates": [-86.8322548891, 39.2330682489]}, "properties": {"full_closure": false, "updated_at": "2026-08-05T14:16"}}, {"type": "Feature", "geometry": {"type": "Point", "coordinates": [-86.8245140339, 38.9617990276]}, "properties": {"full_closure": false, "updated_at": "2026-08-05T14:16"}}, {"type": "Feature", "geometry": {"type": "Point", "coordinates": [-86.7161098744, 39.0404172671]}, "properties": {"full_closure": false, "updated_at": "2026-08-05T14:16"}}, {"type": "Feature", "geometry": {"type": "Point", "coordinates": [-86.655997547, 39.7005290233]}, "properties": {"full_closure": false, "updated_at": "2026-08-05T14:16"}}, {"type": "Feature", "geometry": {"type": "Point", "coordinates": [-86.5523033465, 38.8392918401]}, "properties": {"full_closure": false, "updated_at": "2026-08-05T14:16"}}, {"type": "Feature", "geometry": {"type": "Point", "coordinates": [-86.545136484, 38.8461690047]}, "properties": {"full_closure": false, "updated_at": "2026-08-05T14:16"}}, {"type": "Feature", "geometry": {"type": "Point", "coordinates": [-86.5024263287, 39.7560426735]}, "properties": {"full_closure": false, "updated_at": "2026-08-05T14:16"}}, {"type": "Feature", "geometry": {"type": "Point", "coordinates": [-86.4992117012, 39.1715370755]}, "properties": {"full_closure": false, "updated_at": "2026-08-05T14:16"}}, {"type": "Feature", "geometry": {"type": "Point", "coordinates": [-86.4965093756, 39.7563820028]}, "properties": {"full_closure": false, "updated_at": "2026-08-05T14:16"}}, {"type": "Feature", "geometry": {"type": "Point", "coordinates": [-86.4916679884, 39.7568446633]}, "properties": {"full_closure": false, "updated_at": "2026-08-05T14:16"}}, {"type": "Feature", "geometry": {"type": "Point", "coordinates": [-86.4562467361, 39.7577405275]}, "properties": {"full_closure": false, "updated_at": "2026-08-05T14:16"}}, {"type": "Feature", "geometry": {"type": "Point", "coordinates": [-86.4566235865, 39.6155244197]}, "properties": {"full_closure": false, "updated_at": "2026-08-05T14:16"}}, {"type": "Feature", "geometry": {"type": "Point", "coordinates": [-86.4470561469, 39.7580395759]}, "properties": {"full_closure": false, "updated_at": "2026-08-05T14:16"}}, {"type": "Feature", "geometry": {"type": "Point", "coordinates": [-86.4727195228, 39.7570444827]}, "properties": {"full_closure": false, "updated_at": "2026-08-05T14:16"}}, {"type": "Feature", "geometry": {"type": "Point", "coordinates": [-86.4337899411, 39.7593095988]}, "properties": {"full_closure": false, "updated_at": "2026-08-05T14:16"}}, {"type": "Feature", "geometry": {"type": "Point", "coordinates": [-86.429746511, 39.760547446]}, "properties": {"full_closure": false, "updated_at": "2026-08-05T14:16"}}, {"type": "Feature", "geometry": {"type": "Point", "coordinates": [-86.4290075624, 39.494131673]}, "properties": {"full_closure": false, "updated_at": "2026-08-05T14:16"}}, {"type": "Feature", "geometry": {"type": "Point", "coordinates": [-86.4133488262, 39.1626535563]}, "properties": {"full_closure": false, "updated_at": "2026-08-05T14:16"}}, {"type": "Feature", "geometry": {"type": "Point", "coordinates": [-86.4230503762, 39.1639356598]}, "properties": {"full_closure": false, "updated_at": "2026-08-05T14:16"}}, {"type": "Feature", "geometry": {"type": "Point", "coordinates": [-86.3751340533, 39.6010391947]}, "properties": {"full_closure": false, "updated_at": "2026-08-05T14:16"}}, {"type": "Feature", "geometry": {"type": "Point", "coordinates": [-86.3762324179, 39.5952764339]}, "properties": {"full_closure": false, "updated_at": "2026-08-05T14:16"}}, {"type": "Feature", "geometry": {"type": "Point", "coordinates": [-86.3661714518, 39.1522117451]}, "properties": {"full_closure": false, "updated_at": "2026-08-05T14:16"}}, {"type": "Feature", "geometry": {"type": "Point", "coordinates": [-86.3247554624, 39.7636869714]}, "properties": {"full_closure": false, "updated_at": "2026-08-05T14:16"}}, {"type": "Feature", "geometry": {"type": "Point", "coordinates": [-86.3160074377, 39.7639310991]}, "properties": {"full_closure": false, "updated_at": "2026-08-05T14:16"}}, {"type": "Feature", "geometry": {"type": "Point", "coordinates": [-86.3134861612, 39.7639847053]}, "properties": {"full_closure": false, "updated_at": "2026-08-05T14:16"}}, {"type": "Feature", "geometry": {"type": "Point", "coordinates": [-86.3106644774, 39.7640450767]}, "properties": {"full_closure": false, "updated_at": "2026-08-05T14:16"}}, {"type": "Feature", "geometry": {"type": "Point", "coordinates": [-86.302922281, 39.7642046707]}, "properties": {"full_closure": false, "updated_at": "2026-08-05T14:16"}}, {"type": "Feature", "geometry": {"type": "Point", "coordinates": [-86.3077274585, 39.7640450767]}, "properties": {"full_closure": false, "updated_at": "2026-08-05T14:16"}}, {"type": "Feature", "geometry": {"type": "Point", "coordinates": [-86.305077436, 39.1569216938]}, "properties": {"full_closure": false, "updated_at": "2026-08-05T14:16"}}, {"type": "Feature", "geometry": {"type": "Point", "coordinates": [-86.281593355, 39.7432002868]}, "properties": {"full_closure": false, "updated_at": "2026-08-05T14:16"}}, {"type": "Feature", "geometry": {"type": "Point", "coordinates": [-86.1979862177, 39.7661398716]}, "properties": {"full_closure": false, "updated_at": "2026-08-05T14:16"}}, {"type": "Feature", "geometry": {"type": "Point", "coordinates": [-86.1181234443, 39.7149767153]}, "properties": {"full_closure": false, "updated_at": "2026-08-05T14:16"}}, {"type": "Feature", "geometry": {"type": "Point", "coordinates": [-86.1047056937, 38.7758307387]}, "properties": {"full_closure": false, "updated_at": "2026-08-05T14:16"}}, {"type": "Feature", "geometry": {"type": "Point", "coordinates": [-86.1043958985, 38.7545715288]}, "properties": {"full_closure": false, "updated_at": "2026-08-05T14:16"}}, {"type": "Feature", "geometry": {"type": "Point", "coordinates": [-86.0797168934, 39.5319078888]}, "properties": {"full_closure": false, "updated_at": "2026-08-05T14:16"}}, {"type": "Feature", "geometry": {"type": "Point", "coordinates": [-86.0742746913, 39.5178062081]}, "properties": {"full_closure": false, "updated_at": "2026-08-05T14:16"}}, {"type": "Feature", "geometry": {"type": "Point", "coordinates": [-86.0675195479, 39.5002216315]}, "properties": {"full_closure": false, "updated_at": "2026-08-05T14:16"}}, {"type": "Feature", "geometry": {"type": "Point", "coordinates": [-86.055330249, 39.5505211141]}, "properties": {"full_closure": false, "updated_at": "2026-08-05T14:16"}}, {"type": "Feature", "geometry": {"type": "Point", "coordinates": [-86.0474686944, 39.5506310493]}, "properties": {"full_closure": false, "updated_at": "2026-08-05T14:16"}}, {"type": "Feature", "geometry": {"type": "Point", "coordinates": [-85.9959005439, 38.8383986387]}, "properties": {"full_closure": false, "updated_at": "2026-08-05T14:16"}}, {"type": "Feature", "geometry": {"type": "Point", "coordinates": [-85.9818283343, 39.7752365716]}, "properties": {"full_closure": false, "updated_at": "2026-08-05T14:16"}}, {"type": "Feature", "geometry": {"type": "Point", "coordinates": [-85.9496190273, 38.7847222697]}, "properties": {"full_closure": false, "updated_at": "2026-08-05T14:16"}}, {"type": "Feature", "geometry": {"type": "Point", "coordinates": [-85.9417990469, 39.244387184]}, "properties": {"full_closure": false, "updated_at": "2026-08-05T14:16"}}, {"type": "Feature", "geometry": {"type": "Point", "coordinates": [-85.8904857062, 39.0259038017]}, "properties": {"full_closure": false, "updated_at": "2026-08-05T14:16"}}, {"type": "Feature", "geometry": {"type": "Point", "coordinates": [-85.8900914215, 39.0263879358]}, "properties": {"full_closure": false, "updated_at": "2026-08-05T14:16"}}, {"type": "Feature", "geometry": {"type": "Point", "coordinates": [-85.6295268856, 39.453457328]}, "properties": {"full_closure": false, "updated_at": "2026-08-05T14:16"}}, {"type": "Feature", "geometry": {"type": "Point", "coordinates": [-85.7896628105, 39.5601502197]}, "properties": {"full_closure": false, "updated_at": "2026-08-05T14:16"}}, {"type": "Feature", "geometry": {"type": "Point", "coordinates": [-85.6289649628, 39.4529437073]}, "properties": {"full_closure": false, "updated_at": "2026-08-05T14:16"}}, {"type": "Feature", "geometry": {"type": "Point", "coordinates": [-85.5390439056, 39.3758341757]}, "properties": {"full_closure": false, "updated_at": "2026-08-05T14:16"}}, {"type": "Feature", "geometry": {"type": "Point", "coordinates": [-85.5059548341, 39.3427089477]}, "properties": {"full_closure": false, "updated_at": "2026-08-05T14:16"}}, {"type": "Feature", "geometry": {"type": "Point", "coordinates": [-85.5709621929, 39.4143225744]}, "properties": {"full_closure": false, "updated_at": "2026-08-05T14:16"}}, {"type": "Feature", "geometry": {"type": "Point", "coordinates": [-85.4646139465, 39.3592514258]}, "properties": {"full_closure": false, "updated_at": "2026-08-05T14:16"}}, {"type": "Feature", "geometry": {"type": "Point", "coordinates": [-85.4228613399, 39.294211898]}, "properties": {"full_closure": false, "updated_at": "2026-08-05T14:16"}}, {"type": "Feature", "geometry": {"type": "Point", "coordinates": [-85.4214156292, 39.293085393]}, "properties": {"full_closure": false, "updated_at": "2026-08-05T14:16"}}, {"type": "Feature", "geometry": {"type": "Point", "coordinates": [-85.4005641363, 39.2780046591]}, "properties": {"full_closure": false, "updated_at": "2026-08-05T14:16"}}, {"type": "Feature", "geometry": {"type": "Point", "coordinates": [-85.4025570176, 39.2794798863]}, "properties": {"full_closure": false, "updated_at": "2026-08-05T14:16"}}, {"type": "Feature", "geometry": {"type": "Point", "coordinates": [-85.2775017045, 39.1005121192]}, "properties": {"full_closure": false, "updated_at": "2026-08-05T14:16"}}, {"type": "Feature", "geometry": {"type": "Point", "coordinates": [-85.2784659586, 39.1033713966]}, "properties": {"full_closure": false, "updated_at": "2026-08-05T14:16"}}, {"type": "Feature", "geometry": {"type": "Point", "coordinates": [-85.2221516392, 39.30844636]}, "properties": {"full_closure": false, "updated_at": "2026-08-05T14:16"}}, {"type": "Feature", "geometry": {"type": "Point", "coordinates": [-85.2169347427, 39.3052639319]}, "properties": {"full_closure": false, "updated_at": "2026-08-05T14:16"}}, {"type": "Feature", "geometry": {"type": "Point", "coordinates": [-85.2170232556, 39.3074003106]}, "properties": {"full_closure": false, "updated_at": "2026-08-05T14:16"}}, {"type": "Feature", "geometry": {"type": "Point", "coordinates": [-85.2151376626, 39.3039214952]}, "properties": {"full_closure": false, "updated_at": "2026-08-05T14:16"}}, {"type": "Feature", "geometry": {"type": "Point", "coordinates": [-85.2138555667, 39.3106471052]}, "properties": {"full_closure": false, "updated_at": "2026-08-05T14:16"}}, {"type": "Feature", "geometry": {"type": "Point", "coordinates": [-85.2117325983, 39.3007699301]}, "properties": {"full_closure": false, "updated_at": "2026-08-05T14:16"}}, {"type": "Feature", "geometry": {"type": "Point", "coordinates": [-85.2105752251, 39.3123490131]}, "properties": {"full_closure": false, "updated_at": "2026-08-05T14:16"}}, {"type": "Feature", "geometry": {"type": "Point", "coordinates": [-85.2091254911, 39.2943446825]}, "properties": {"full_closure": false, "updated_at": "2026-08-05T14:16"}}, {"type": "Feature", "geometry": {"type": "Point", "coordinates": [-85.2075644455, 39.2921452411]}, "properties": {"full_closure": false, "updated_at": "2026-08-05T14:16"}}, {"type": "Feature", "geometry": {"type": "Point", "coordinates": [-85.1960738621, 39.287895296]}, "properties": {"full_closure": false, "updated_at": "2026-08-05T14:16"}}, {"type": "Feature", "geometry": {"type": "Point", "coordinates": [-85.1881305001, 39.2857508613]}, "properties": {"full_closure": false, "updated_at": "2026-08-05T14:16"}}, {"type": "Feature", "geometry": {"type": "Point", "coordinates": [-85.1844303927, 39.2847960136]}, "properties": {"full_closure": false, "updated_at": "2026-08-05T14:16"}}, {"type": "Feature", "geometry": {"type": "Point", "coordinates": [-85.0756306073, 39.6184735549]}, "properties": {"full_closure": false, "updated_at": "2026-08-05T14:16"}}, {"type": "Feature", "geometry": {"type": "Point", "coordinates": [-85.0108096621, 39.4104159009]}, "properties": {"full_closure": false, "updated_at": "2026-08-05T14:16"}}, {"type": "Feature", "geometry": {"type": "Point", "coordinates": [-85.0113957247, 39.413898742]}, "properties": {"full_closure": false, "updated_at": "2026-08-05T14:16"}}, {"type": "Feature", "geometry": {"type": "Point", "coordinates": [-85.0051139912, 39.5951088276]}, "properties": {"full_closure": false, "updated_at": "2026-08-05T14:16"}}, {"type": "Feature", "geometry": {"type": "Point", "coordinates": [-84.9957718572, 39.5902244931]}, "properties": {"full_closure": false, "updated_at": "2026-08-05T14:16"}}, {"type": "Feature", "geometry": {"type": "Point", "coordinates": [-84.9005427083, 39.3093556172]}, "properties": {"full_closure": false, "updated_at": "2026-08-05T14:16"}}, {"type": "Feature", "geometry": {"type": "Point", "coordinates": [-84.9010858556, 39.3101603193]}, "properties": {"full_closure": false, "updated_at": "2026-08-05T14:16"}}, {"type": "Feature", "geometry": {"type": "Point", "coordinates": [-84.8775883636, 38.7988749615]}, "properties": {"full_closure": false, "updated_at": "2026-08-05T14:16"}}, {"type": "Feature", "geometry": {"type": "Point", "coordinates": [-84.8648760339, 38.8003635581]}, "properties": {"full_closure": false, "updated_at": "2026-08-05T14:16"}}, {"type": "Feature", "geometry": {"type": "Point", "coordinates": [-84.814726772, 39.6264799119]}, "properties": {"full_closure": false, "updated_at": "2026-08-05T14:16"}}, {"type": "Feature", "geometry": {"type": "Point", "coordinates": [-87.4187721935, 39.9517648339]}, "properties": {"full_closure": false, "updated_at": "2026-08-05T14:16"}}, {"type": "Feature", "geometry": {"type": "Point", "coordinates": [-87.4106129136, 39.8295204672]}, "properties": {"full_closure": false, "updated_at": "2026-08-05T14:16"}}, {"type": "Feature", "geometry": {"type": "Point", "coordinates": [-87.4086334434, 39.8017354521]}, "properties": {"full_closure": false, "updated_at": "2026-08-05T14:16"}}, {"type": "Feature", "geometry": {"type": "Point", "coordinates": [-87.2820264723, 40.7655698147]}, "properties": {"full_closure": false, "updated_at": "2026-08-05T14:16"}}, {"type": "Feature", "geometry": {"type": "Point", "coordinates": [-87.1541467931, 40.8107784796]}, "properties": {"full_closure": false, "updated_at": "2026-08-05T14:16"}}, {"type": "Feature", "geometry": {"type": "Point", "coordinates": [-87.1509925153, 40.7658554898]}, "properties": {"full_closure": false, "updated_at": "2026-08-05T14:16"}}, {"type": "Feature", "geometry": {"type": "Point", "coordinates": [-87.1078760054, 40.7656503117]}, "properties": {"full_closure": false, "updated_at": "2026-08-05T14:16"}}, {"type": "Feature", "geometry": {"type": "Point", "coordinates": [-87.0725083973, 40.0258756059]}, "properties": {"full_closure": false, "updated_at": "2026-08-05T14:16"}}, {"type": "Feature", "geometry": {"type": "Point", "coordinates": [-87.0774490263, 40.0269096146]}, "properties": {"full_closure": false, "updated_at": "2026-08-05T14:16"}}, {"type": "Feature", "geometry": {"type": "Point", "coordinates": [-87.0410460855, 40.7212584303]}, "properties": {"full_closure": false, "updated_at": "2026-08-05T14:16"}}, {"type": "Feature", "geometry": {"type": "Point", "coordinates": [-87.0409159984, 40.692869877]}, "properties": {"full_closure": false, "updated_at": "2026-08-05T14:16"}}, {"type": "Feature", "geometry": {"type": "Point", "coordinates": [-86.9966152932, 40.0247222601]}, "properties": {"full_closure": false, "updated_at": "2026-08-05T14:16"}}, {"type": "Feature", "geometry": {"type": "Point", "coordinates": [-86.9756095733, 40.0250092344]}, "properties": {"full_closure": false, "updated_at": "2026-08-05T14:16"}}, {"type": "Feature", "geometry": {"type": "Point", "coordinates": [-86.9732291128, 40.025467903]}, "properties": {"full_closure": false, "updated_at": "2026-08-05T14:16"}}, {"type": "Feature", "geometry": {"type": "Point", "coordinates": [-86.9318345811, 40.0249837527]}, "properties": {"full_closure": false, "updated_at": "2026-08-05T14:16"}}, {"type": "Feature", "geometry": {"type": "Point", "coordinates": [-86.9087300326, 40.0612847838]}, "properties": {"full_closure": false, "updated_at": "2026-08-05T14:16"}}, {"type": "Feature", "geometry": {"type": "Point", "coordinates": [-86.9036485876, 40.3912165821]}, "properties": {"full_closure": false, "updated_at": "2026-08-05T14:16"}}, {"type": "Feature", "geometry": {"type": "Point", "coordinates": [-86.902755412, 39.9253128514]}, "properties": {"full_closure": false, "updated_at": "2026-08-05T14:16"}}, {"type": "Feature", "geometry": {"type": "Point", "coordinates": [-86.9027540709, 39.9222618959]}, "properties": {"full_closure": false, "updated_at": "2026-08-05T14:16"}}, {"type": "Feature", "geometry": {"type": "Point", "coordinates": [-86.8979421879, 40.3949958519]}, "properties": {"full_closure": false, "updated_at": "2026-08-05T14:16"}}, {"type": "Feature", "geometry": {"type": "Point", "coordinates": [-86.9027701642, 40.392604635]}, "properties": {"full_closure": false, "updated_at": "2026-08-05T14:16"}}, {"type": "Feature", "geometry": {"type": "Point", "coordinates": [-86.8689354385, 40.58240446]}, "properties": {"full_closure": false, "updated_at": "2026-08-05T14:16"}}, {"type": "Feature", "geometry": {"type": "Point", "coordinates": [-86.8689568962, 40.5835336821]}, "properties": {"full_closure": false, "updated_at": "2026-08-05T14:16"}}, {"type": "Feature", "geometry": {"type": "Point", "coordinates": [-86.8427262331, 40.7447532386]}, "properties": {"full_closure": false, "updated_at": "2026-08-05T14:16"}}, {"type": "Feature", "geometry": {"type": "Point", "coordinates": [-86.7787126328, 40.3266638821]}, "properties": {"full_closure": false, "updated_at": "2026-08-05T14:16"}}, {"type": "Feature", "geometry": {"type": "Point", "coordinates": [-86.7498091484, 40.3749275651]}, "properties": {"full_closure": false, "updated_at": "2026-08-05T14:16"}}, {"type": "Feature", "geometry": {"type": "Point", "coordinates": [-86.6741118456, 40.2294820713]}, "properties": {"full_closure": false, "updated_at": "2026-08-05T14:16"}}, {"type": "Feature", "geometry": {"type": "Point", "coordinates": [-86.6552103187, 40.0545577886]}, "properties": {"full_closure": false, "updated_at": "2026-08-05T14:16"}}, {"type": "Feature", "geometry": {"type": "Point", "coordinates": [-86.6389105345, 40.5110268518]}, "properties": {"full_closure": false, "updated_at": "2026-08-05T14:16"}}, {"type": "Feature", "geometry": {"type": "Point", "coordinates": [-86.5613356853, 40.1267977394]}, "properties": {"full_closure": false, "updated_at": "2026-08-05T14:16"}}, {"type": "Feature", "geometry": {"type": "Point", "coordinates": [-86.5389674032, 40.1056364459]}, "properties": {"full_closure": false, "updated_at": "2026-08-05T14:16"}}, {"type": "Feature", "geometry": {"type": "Point", "coordinates": [-86.5298773969, 40.0976582361]}, "properties": {"full_closure": false, "updated_at": "2026-08-05T14:16"}}, {"type": "Feature", "geometry": {"type": "Point", "coordinates": [-86.513042512, 40.0826820858]}, "properties": {"full_closure": false, "updated_at": "2026-08-05T14:16"}}, {"type": "Feature", "geometry": {"type": "Point", "coordinates": [-86.504983815, 40.8690240003]}, "properties": {"full_closure": false, "updated_at": "2026-08-05T14:16"}}, {"type": "Feature", "geometry": {"type": "Point", "coordinates": [-86.4423528934, 40.7113301953]}, "properties": {"full_closure": false, "updated_at": "2026-08-05T14:16"}}, {"type": "Feature", "geometry": {"type": "Point", "coordinates": [-86.4318319285, 39.9670493851]}, "properties": {"full_closure": false, "updated_at": "2026-08-05T14:16"}}, {"type": "Feature", "geometry": {"type": "Point", "coordinates": [-86.4318815494, 39.9639688755]}, "properties": {"full_closure": false, "updated_at": "2026-08-05T14:16"}}, {"type": "Feature", "geometry": {"type": "Point", "coordinates": [-86.3747652495, 40.7349000874]}, "properties": {"full_closure": false, "updated_at": "2026-08-05T14:16"}}, {"type": "Feature", "geometry": {"type": "Point", "coordinates": [-86.3670418287, 40.7468935853]}, "properties": {"full_closure": false, "updated_at": "2026-08-05T14:16"}}, {"type": "Feature", "geometry": {"type": "Point", "coordinates": [-86.3623278463, 40.7606815329]}, "properties": {"full_closure": false, "updated_at": "2026-08-05T14:16"}}, {"type": "Feature", "geometry": {"type": "Point", "coordinates": [-86.2830095613, 40.7227617514]}, "properties": {"full_closure": false, "updated_at": "2026-08-05T14:16"}}, {"type": "Feature", "geometry": {"type": "Point", "coordinates": [-86.2593135858, 40.6874826623]}, "properties": {"full_closure": false, "updated_at": "2026-08-05T14:16"}}, {"type": "Feature", "geometry": {"type": "Point", "coordinates": [-86.2622546279, 40.7409323848]}, "properties": {"full_closure": false, "updated_at": "2026-08-05T14:16"}}, {"type": "Feature", "geometry": {"type": "Point", "coordinates": [-86.2418912971, 40.1296261519]}, "properties": {"full_closure": false, "updated_at": "2026-08-05T14:16"}}, {"type": "Feature", "geometry": {"type": "Point", "coordinates": [-86.2436172986, 40.1295859052]}, "properties": {"full_closure": false, "updated_at": "2026-08-05T14:16"}}, {"type": "Feature", "geometry": {"type": "Point", "coordinates": [-86.2221851075, 40.049292606]}, "properties": {"full_closure": false, "updated_at": "2026-08-05T14:16"}}, {"type": "Feature", "geometry": {"type": "Point", "coordinates": [-86.2222494805, 40.0581868404]}, "properties": {"full_closure": false, "updated_at": "2026-08-05T14:16"}}, {"type": "Feature", "geometry": {"type": "Point", "coordinates": [-86.191856029, 40.5866825954]}, "properties": {"full_closure": false, "updated_at": "2026-08-05T14:16"}}, {"type": "Feature", "geometry": {"type": "Point", "coordinates": [-86.191740694, 40.5864532494]}, "properties": {"full_closure": false, "updated_at": "2026-08-05T14:16"}}, {"type": "Feature", "geometry": {"type": "Point", "coordinates": [-86.1864433312, 40.007031759]}, "properties": {"full_closure": false, "updated_at": "2026-08-05T14:16"}}, {"type": "Feature", "geometry": {"type": "Point", "coordinates": [-86.1344902837, 40.0478106875]}, "properties": {"full_closure": false, "updated_at": "2026-08-05T14:16"}}, {"type": "Feature", "geometry": {"type": "Point", "coordinates": [-86.1274012053, 40.5603996358]}, "properties": {"full_closure": false, "updated_at": "2026-08-05T14:16"}}, {"type": "Feature", "geometry": {"type": "Point", "coordinates": [-86.1270806813, 40.5570844212]}, "properties": {"full_closure": false, "updated_at": "2026-08-05T14:16"}}, {"type": "Feature", "geometry": {"type": "Point", "coordinates": [-86.11650339, 40.1756219997]}, "properties": {"full_closure": false, "updated_at": "2026-08-05T14:16"}}, {"type": "Feature", "geometry": {"type": "Point", "coordinates": [-86.1091273153, 40.17563135]}, "properties": {"full_closure": false, "updated_at": "2026-08-05T14:16"}}, {"type": "Feature", "geometry": {"type": "Point", "coordinates": [-86.1086659753, 40.17563135]}, "properties": {"full_closure": false, "updated_at": "2026-08-05T14:16"}}, {"type": "Feature", "geometry": {"type": "Point", "coordinates": [-86.0841988647, 40.4768246673]}, "properties": {"full_closure": false, "updated_at": "2026-08-05T14:16"}}, {"type": "Feature", "geometry": {"type": "Point", "coordinates": [-86.0563722872, 39.8928903584]}, "properties": {"full_closure": false, "updated_at": "2026-08-05T14:16"}}, {"type": "Feature", "geometry": {"type": "Point", "coordinates": [-86.0577536249, 39.891370896]}, "properties": {"full_closure": false, "updated_at": "2026-08-05T14:16"}}, {"type": "Feature", "geometry": {"type": "Point", "coordinates": [-86.0563763105, 39.8966749447]}, "properties": {"full_closure": false, "updated_at": "2026-08-05T14:16"}}, {"type": "Feature", "geometry": {"type": "Point", "coordinates": [-86.0562341535, 39.8927589092]}, "properties": {"full_closure": false, "updated_at": "2026-08-05T14:16"}}, {"type": "Feature", "geometry": {"type": "Point", "coordinates": [-86.054726752, 39.8941872158]}, "properties": {"full_closure": false, "updated_at": "2026-08-05T14:16"}}, {"type": "Feature", "geometry": {"type": "Point", "coordinates": [-86.054380747, 39.8948939625]}, "properties": {"full_closure": false, "updated_at": "2026-08-05T14:16"}}, {"type": "Feature", "geometry": {"type": "Point", "coordinates": [-86.0520686829, 39.8963249254]}, "properties": {"full_closure": false, "updated_at": "2026-08-05T14:16"}}, {"type": "Feature", "geometry": {"type": "Point", "coordinates": [-86.0495876395, 39.901455941]}, "properties": {"full_closure": false, "updated_at": "2026-08-05T14:16"}}, {"type": "Feature", "geometry": {"type": "Point", "coordinates": [-86.0481137657, 39.9030760025]}, "properties": {"full_closure": false, "updated_at": "2026-08-05T14:16"}}, {"type": "Feature", "geometry": {"type": "Point", "coordinates": [-86.0435070717, 39.9087569427]}, "properties": {"full_closure": false, "updated_at": "2026-08-05T14:16"}}, {"type": "Feature", "geometry": {"type": "Point", "coordinates": [-86.0512465858, 39.8987764378]}, "properties": {"full_closure": false, "updated_at": "2026-08-05T14:16"}}, {"type": "Feature", "geometry": {"type": "Point", "coordinates": [-86.0429303967, 39.9083653219]}, "properties": {"full_closure": false, "updated_at": "2026-08-05T14:16"}}, {"type": "Feature", "geometry": {"type": "Point", "coordinates": [-86.0384779298, 39.9152197462]}, "properties": {"full_closure": false, "updated_at": "2026-08-05T14:16"}}, {"type": "Feature", "geometry": {"type": "Point", "coordinates": [-85.939348849, 40.1752652756]}, "properties": {"full_closure": false, "updated_at": "2026-08-05T14:16"}}, {"type": "Feature", "geometry": {"type": "Point", "coordinates": [-85.939284476, 40.1794253818]}, "properties": {"full_closure": false, "updated_at": "2026-08-05T14:16"}}, {"type": "Feature", "geometry": {"type": "Point", "coordinates": [-85.8311083042, 40.819085275]}, "properties": {"full_closure": false, "updated_at": "2026-08-05T14:16"}}, {"type": "Feature", "geometry": {"type": "Point", "coordinates": [-85.8271372937, 40.8211183774]}, "properties": {"full_closure": false, "updated_at": "2026-08-05T14:16"}}, {"type": "Feature", "geometry": {"type": "Point", "coordinates": [-85.8204840743, 40.8252879072]}, "properties": {"full_closure": false, "updated_at": "2026-08-05T14:16"}}, {"type": "Feature", "geometry": {"type": "Point", "coordinates": [-85.8050104104, 40.8316071602]}, "properties": {"full_closure": false, "updated_at": "2026-08-05T14:16"}}, {"type": "Feature", "geometry": {"type": "Point", "coordinates": [-85.671815934, 40.313742334]}, "properties": {"full_closure": false, "updated_at": "2026-08-05T14:16"}}, {"type": "Feature", "geometry": {"type": "Point", "coordinates": [-85.6718306862, 40.3119492916]}, "properties": {"full_closure": false, "updated_at": "2026-08-05T14:16"}}, {"type": "Feature", "geometry": {"type": "Point", "coordinates": [-85.6717824064, 40.3300944417]}, "properties": {"full_closure": false, "updated_at": "2026-08-05T14:16"}}, {"type": "Feature", "geometry": {"type": "Point", "coordinates": [-85.6718172752, 40.3282718648]}, "properties": {"full_closure": false, "updated_at": "2026-08-05T14:16"}}, {"type": "Feature", "geometry": {"type": "Point", "coordinates": [-85.634228798, 40.5530302244]}, "properties": {"full_closure": false, "updated_at": "2026-08-05T14:16"}}, {"type": "Feature", "geometry": {"type": "Point", "coordinates": [-85.6338036679, 40.5535667138]}, "properties": {"full_closure": false, "updated_at": "2026-08-05T14:16"}}, {"type": "Feature", "geometry": {"type": "Point", "coordinates": [-85.528783115, 39.9868306674]}, "properties": {"full_closure": false, "updated_at": "2026-08-05T14:16"}}, {"type": "Feature", "geometry": {"type": "Point", "coordinates": [-85.5288233481, 39.9847693836]}, "properties": {"full_closure": false, "updated_at": "2026-08-05T14:16"}}, {"type": "Feature", "geometry": {"type": "Point", "coordinates": [-85.530220779, 40.0045346216]}, "properties": {"full_closure": false, "updated_at": "2026-08-05T14:16"}}, {"type": "Feature", "geometry": {"type": "Point", "coordinates": [-85.5248509966, 40.0045936258]}, "properties": {"full_closure": false, "updated_at": "2026-08-05T14:16"}}, {"type": "Feature", "geometry": {"type": "Point", "coordinates": [-85.4152089975, 40.741923468]}, "properties": {"full_closure": false, "updated_at": "2026-08-05T14:16"}}, {"type": "Feature", "geometry": {"type": "Point", "coordinates": [-85.4082124553, 40.7419194672]}, "properties": {"full_closure": false, "updated_at": "2026-08-05T14:16"}}, {"type": "Feature", "geometry": {"type": "Point", "coordinates": [-85.4065025471, 40.7419328669]}, "properties": {"full_closure": false, "updated_at": "2026-08-05T14:16"}}, {"type": "Feature", "geometry": {"type": "Point", "coordinates": [-85.3854619584, 39.8935635492]}, "properties": {"full_closure": false, "updated_at": "2026-08-05T14:16"}}, {"type": "Feature", "geometry": {"type": "Point", "coordinates": [-85.3854780517, 39.8931920989]}, "properties": {"full_closure": false, "updated_at": "2026-08-05T14:16"}}, {"type": "Feature", "geometry": {"type": "Point", "coordinates": [-85.2800712607, 40.8284984745]}, "properties": {"full_closure": false, "updated_at": "2026-08-05T14:16"}}, {"type": "Feature", "geometry": {"type": "Point", "coordinates": [-85.2799653134, 40.8110104804]}, "properties": {"full_closure": false, "updated_at": "2026-08-05T14:16"}}, {"type": "Feature", "geometry": {"type": "Point", "coordinates": [-85.2761458478, 40.8110144771]}, "properties": {"full_closure": false, "updated_at": "2026-08-05T14:16"}}, {"type": "Feature", "geometry": {"type": "Point", "coordinates": [-85.2368313692, 40.8290684577]}, "properties": {"full_closure": false, "updated_at": "2026-08-05T14:16"}}, {"type": "Feature", "geometry": {"type": "Point", "coordinates": [-85.1969563088, 40.8299991807]}, "properties": {"full_closure": false, "updated_at": "2026-08-05T14:16"}}, {"type": "Feature", "geometry": {"type": "Point", "coordinates": [-85.1374206564, 40.8301560863]}, "properties": {"full_closure": false, "updated_at": "2026-08-05T14:16"}}, {"type": "Feature", "geometry": {"type": "Point", "coordinates": [-85.0888150057, 40.8305678191]}, "properties": {"full_closure": false, "updated_at": "2026-08-05T14:16"}}, {"type": "Feature", "geometry": {"type": "Point", "coordinates": [-85.0441146514, 40.8314757531]}, "properties": {"full_closure": false, "updated_at": "2026-08-05T14:16"}}, {"type": "Feature", "geometry": {"type": "Point", "coordinates": [-85.1784772298, 39.8530501756]}, "properties": {"full_closure": false, "updated_at": "2026-08-05T14:16"}}, {"type": "Feature", "geometry": {"type": "Point", "coordinates": [-84.9534774443, 40.8322817593]}, "properties": {"full_closure": false, "updated_at": "2026-08-05T14:16"}}, {"type": "Feature", "geometry": {"type": "Point", "coordinates": [-84.9372473976, 40.8083644693]}, "properties": {"full_closure": false, "updated_at": "2026-08-05T14:16"}}, {"type": "Feature", "geometry": {"type": "Point", "coordinates": [-84.9371870479, 40.8033367069]}, "properties": {"full_closure": false, "updated_at": "2026-08-05T14:16"}}, {"type": "Feature", "geometry": {"type": "Point", "coordinates": [-84.9373345694, 40.7941219816]}, "properties": {"full_closure": false, "updated_at": "2026-08-05T14:16"}}, {"type": "Feature", "geometry": {"type": "Point", "coordinates": [-84.9371857068, 40.8018682005]}, "properties": {"full_closure": false, "updated_at": "2026-08-05T14:16"}}, {"type": "Feature", "geometry": {"type": "Point", "coordinates": [-84.9191760144, 39.9600823864]}, "properties": {"full_closure": false, "updated_at": "2026-08-05T14:16"}}, {"type": "Feature", "geometry": {"type": "Point", "coordinates": [-84.9170557281, 39.9541398937]}, "properties": {"full_closure": false, "updated_at": "2026-08-05T14:16"}}, {"type": "Feature", "geometry": {"type": "Point", "coordinates": [-84.8293662688, 39.8451711318]}, "properties": {"full_closure": false, "updated_at": "2026-08-05T14:16"}}, {"type": "Feature", "geometry": {"type": "Point", "coordinates": [-87.4699970212, 41.3472792707]}, "properties": {"full_closure": false, "updated_at": "2026-08-05T14:16"}}, {"type": "Feature", "geometry": {"type": "Point", "coordinates": [-87.4696148065, 41.3415890057]}, "properties": {"full_closure": false, "updated_at": "2026-08-05T14:16"}}, {"type": "Feature", "geometry": {"type": "Point", "coordinates": [-87.4522542086, 41.6517140238]}, "properties": {"full_closure": false, "updated_at": "2026-08-05T14:16"}}, {"type": "Feature", "geometry": {"type": "Point", "coordinates": [-87.4413818744, 41.4209823838]}, "properties": {"full_closure": false, "updated_at": "2026-08-05T14:16"}}, {"type": "Feature", "geometry": {"type": "Point", "coordinates": [-87.3604113486, 41.5296305859]}, "properties": {"full_closure": false, "updated_at": "2026-08-05T14:16"}}, {"type": "Feature", "geometry": {"type": "Point", "coordinates": [-87.3396698263, 41.6020274625]}, "properties": {"full_closure": false, "updated_at": "2026-08-05T14:16"}}, {"type": "Feature", "geometry": {"type": "Point", "coordinates": [-87.3199408379, 41.3900256771]}, "properties": {"full_closure": false, "updated_at": "2026-08-05T14:16"}}, {"type": "Feature", "geometry": {"type": "Point", "coordinates": [-87.319390985, 41.3898244504]}, "properties": {"full_closure": false, "updated_at": "2026-08-05T14:16"}}, {"type": "Feature", "geometry": {"type": "Point", "coordinates": [-87.3148593929, 40.9405571396]}, "properties": {"full_closure": false, "updated_at": "2026-08-05T14:16"}}, {"type": "Feature", "geometry": {"type": "Point", "coordinates": [-87.3149572935, 40.9550719502]}, "properties": {"full_closure": false, "updated_at": "2026-08-05T14:16"}}, {"type": "Feature", "geometry": {"type": "Point", "coordinates": [-87.2995962825, 41.2888634403]}, "properties": {"full_closure": false, "updated_at": "2026-08-05T14:16"}}, {"type": "Feature", "geometry": {"type": "Point", "coordinates": [-87.2200446453, 40.9350358132]}, "properties": {"full_closure": false, "updated_at": "2026-08-05T14:16"}}, {"type": "Feature", "geometry": {"type": "Point", "coordinates": [-87.1718936291, 41.5504686673]}, "properties": {"full_closure": false, "updated_at": "2026-08-05T14:16"}}, {"type": "Feature", "geometry": {"type": "Point", "coordinates": [-87.1560095873, 40.9268215755]}, "properties": {"full_closure": false, "updated_at": "2026-08-05T14:16"}}, {"type": "Feature", "geometry": {"type": "Point", "coordinates": [-87.1548964705, 40.9064447953]}, "properties": {"full_closure": false, "updated_at": "2026-08-05T14:16"}}, {"type": "Feature", "geometry": {"type": "Point", "coordinates": [-87.1518763032, 41.0580446423]}, "properties": {"full_closure": false, "updated_at": "2026-08-05T14:16"}}, {"type": "Feature", "geometry": {"type": "Point", "coordinates": [-87.1518092479, 41.0628336969]}, "properties": {"full_closure": false, "updated_at": "2026-08-05T14:16"}}, {"type": "Feature", "geometry": {"type": "Point", "coordinates": [-87.1517797436, 41.0197909247]}, "properties": {"full_closure": false, "updated_at": "2026-08-05T14:16"}}, {"type": "Feature", "geometry": {"type": "Point", "coordinates": [-87.1516550209, 41.0136178395]}, "properties": {"full_closure": false, "updated_at": "2026-08-05T14:16"}}, {"type": "Feature", "geometry": {"type": "Point", "coordinates": [-87.1516805019, 41.0705302772]}, "properties": {"full_closure": false, "updated_at": "2026-08-05T14:16"}}, {"type": "Feature", "geometry": {"type": "Point", "coordinates": [-87.1514256921, 41.0826847557]}, "properties": {"full_closure": false, "updated_at": "2026-08-05T14:16"}}, {"type": "Feature", "geometry": {"type": "Point", "coordinates": [-87.151181611, 40.9978987758]}, "properties": {"full_closure": false, "updated_at": "2026-08-05T14:16"}}, {"type": "Feature", "geometry": {"type": "Point", "coordinates": [-87.1511440601, 40.9844340592]}, "properties": {"full_closure": false, "updated_at": "2026-08-05T14:16"}}, {"type": "Feature", "geometry": {"type": "Point", "coordinates": [-87.1238914754, 41.550181687]}, "properties": {"full_closure": false, "updated_at": "2026-08-05T14:16"}}, {"type": "Feature", "geometry": {"type": "Point", "coordinates": [-87.0844683673, 41.4486319382]}, "properties": {"full_closure": false, "updated_at": "2026-08-05T14:16"}}, {"type": "Feature", "geometry": {"type": "Point", "coordinates": [-87.0850356545, 41.4485031437]}, "properties": {"full_closure": false, "updated_at": "2026-08-05T14:16"}}, {"type": "Feature", "geometry": {"type": "Point", "coordinates": [-87.0624675478, 41.6389601513]}, "properties": {"full_closure": false, "updated_at": "2026-08-05T14:16"}}, {"type": "Feature", "geometry": {"type": "Point", "coordinates": [-87.062521192, 41.640031694]}, "properties": {"full_closure": false, "updated_at": "2026-08-05T14:16"}}, {"type": "Feature", "geometry": {"type": "Point", "coordinates": [-87.0054397609, 41.2228382169]}, "properties": {"full_closure": false, "updated_at": "2026-08-05T14:16"}}, {"type": "Feature", "geometry": {"type": "Point", "coordinates": [-86.9744964566, 41.6537914094]}, "properties": {"full_closure": false, "updated_at": "2026-08-05T14:16"}}, {"type": "Feature", "geometry": {"type": "Point", "coordinates": [-86.9242077197, 41.5351224353]}, "properties": {"full_closure": false, "updated_at": "2026-08-05T14:16"}}, {"type": "Feature", "geometry": {"type": "Point", "coordinates": [-86.9451477255, 41.5247650476]}, "properties": {"full_closure": false, "updated_at": "2026-08-05T14:16"}}, {"type": "Feature", "geometry": {"type": "Point", "coordinates": [-86.8938826646, 41.5184511245]}, "properties": {"full_closure": false, "updated_at": "2026-08-05T14:16"}}, {"type": "Feature", "geometry": {"type": "Point", "coordinates": [-86.894157591, 41.5186630608]}, "properties": {"full_closure": false, "updated_at": "2026-08-05T14:16"}}, {"type": "Feature", "geometry": {"type": "Point", "coordinates": [-86.8920171882, 41.0069914174]}, "properties": {"full_closure": false, "updated_at": "2026-08-05T14:16"}}, {"type": "Feature", "geometry": {"type": "Point", "coordinates": [-86.8919729318, 41.0054451332]}, "properties": {"full_closure": false, "updated_at": "2026-08-05T14:16"}}, {"type": "Feature", "geometry": {"type": "Point", "coordinates": [-86.8916980054, 40.9327264437]}, "properties": {"full_closure": false, "updated_at": "2026-08-05T14:16"}}, {"type": "Feature", "geometry": {"type": "Point", "coordinates": [-86.8917422618, 40.9268926308]}, "properties": {"full_closure": false, "updated_at": "2026-08-05T14:16"}}, {"type": "Feature", "geometry": {"type": "Point", "coordinates": [-86.8916497256, 41.1865371729]}, "properties": {"full_closure": false, "updated_at": "2026-08-05T14:16"}}, {"type": "Feature", "geometry": {"type": "Point", "coordinates": [-86.900047722, 41.1865613324]}, "properties": {"full_closure": false, "updated_at": "2026-08-05T14:16"}}, {"type": "Feature", "geometry": {"type": "Point", "coordinates": [-86.8914257611, 40.9865315578]}, "properties": {"full_closure": false, "updated_at": "2026-08-05T14:16"}}, {"type": "Feature", "geometry": {"type": "Point", "coordinates": [-86.8914458777, 40.9875320063]}, "properties": {"full_closure": false, "updated_at": "2026-08-05T14:16"}}, {"type": "Feature", "geometry": {"type": "Point", "coordinates": [-86.8910985316, 41.1906745002]}, "properties": {"full_closure": false, "updated_at": "2026-08-05T14:16"}}, {"type": "Feature", "geometry": {"type": "Point", "coordinates": [-86.8911079194, 41.1793756629]}, "properties": {"full_closure": false, "updated_at": "2026-08-05T14:16"}}, {"type": "Feature", "geometry": {"type": "Point", "coordinates": [-86.9075149919, 41.658253272]}, "properties": {"full_closure": false, "updated_at": "2026-08-05T14:16"}}, {"type": "Feature", "geometry": {"type": "Point", "coordinates": [-86.8486928071, 41.6873699977]}, "properties": {"full_closure": false, "updated_at": "2026-08-05T14:16"}}, {"type": "Feature", "geometry": {"type": "Point", "coordinates": [-86.8047166492, 41.6920557974]}, "properties": {"full_closure": false, "updated_at": "2026-08-05T14:16"}}, {"type": "Feature", "geometry": {"type": "Point", "coordinates": [-86.8046254541, 41.6918680265]}, "properties": {"full_closure": false, "updated_at": "2026-08-05T14:16"}}, {"type": "Feature", "geometry": {"type": "Point", "coordinates": [-86.7826849843, 41.6900521907]}, "properties": {"full_closure": false, "updated_at": "2026-08-05T14:16"}}, {"type": "Feature", "geometry": {"type": "Point", "coordinates": [-86.7826836432, 41.6900521907]}, "properties": {"full_closure": false, "updated_at": "2026-08-05T14:16"}}, {"type": "Feature", "geometry": {"type": "Point", "coordinates": [-86.7481595899, 41.6437116741]}, "properties": {"full_closure": false, "updated_at": "2026-08-05T14:16"}}, {"type": "Feature", "geometry": {"type": "Point", "coordinates": [-86.7456490422, 41.6371911836]}, "properties": {"full_closure": false, "updated_at": "2026-08-05T14:16"}}, {"type": "Feature", "geometry": {"type": "Point", "coordinates": [-86.7447974409, 41.6360110305]}, "properties": {"full_closure": false, "updated_at": "2026-08-05T14:16"}}, {"type": "Feature", "geometry": {"type": "Point", "coordinates": [-86.7442060138, 41.6351701449]}, "properties": {"full_closure": false, "updated_at": "2026-08-05T14:16"}}, {"type": "Feature", "geometry": {"type": "Point", "coordinates": [-86.7384446288, 41.6473514212]}, "properties": {"full_closure": false, "updated_at": "2026-08-05T14:16"}}, {"type": "Feature", "geometry": {"type": "Point", "coordinates": [-86.7240022744, 41.7511783608]}, "properties": {"full_closure": false, "updated_at": "2026-08-05T14:16"}}, {"type": "Feature", "geometry": {"type": "Point", "coordinates": [-86.7232110227, 41.7579174643]}, "properties": {"full_closure": false, "updated_at": "2026-08-05T14:16"}}, {"type": "Feature", "geometry": {"type": "Point", "coordinates": [-86.7229977871, 41.7583613355]}, "properties": {"full_closure": false, "updated_at": "2026-08-05T14:16"}}, {"type": "Feature", "geometry": {"type": "Point", "coordinates": [-86.7223889257, 41.7596434114]}, "properties": {"full_closure": false, "updated_at": "2026-08-05T14:16"}}, {"type": "Feature", "geometry": {"type": "Point", "coordinates": [-86.7002083982, 41.5828657248]}, "properties": {"full_closure": false, "updated_at": "2026-08-05T14:16"}}, {"type": "Feature", "geometry": {"type": "Point", "coordinates": [-86.695649984, 41.6228655118]}, "properties": {"full_closure": false, "updated_at": "2026-08-05T14:16"}}, {"type": "Feature", "geometry": {"type": "Point", "coordinates": [-86.6968556369, 41.6220809724]}, "properties": {"full_closure": false, "updated_at": "2026-08-05T14:16"}}, {"type": "Feature", "geometry": {"type": "Point", "coordinates": [-86.6937576855, 41.620663439]}, "properties": {"full_closure": false, "updated_at": "2026-08-05T14:16"}}, {"type": "Feature", "geometry": {"type": "Point", "coordinates": [-86.6874732698, 41.6266930194]}, "properties": {"full_closure": false, "updated_at": "2026-08-05T14:16"}}, {"type": "Feature", "geometry": {"type": "Point", "coordinates": [-86.6860181714, 41.678575018]}, "properties": {"full_closure": false, "updated_at": "2026-08-05T14:16"}}, {"type": "Feature", "geometry": {"type": "Point", "coordinates": [-86.7334221925, 41.6853100331]}, "properties": {"full_closure": false, "updated_at": "2026-08-05T14:16"}}, {"type": "Feature", "geometry": {"type": "Point", "coordinates": [-86.6489701594, 41.6738583724]}, "properties": {"full_closure": false, "updated_at": "2026-08-05T14:16"}}, {"type": "Feature", "geometry": {"type": "Point", "coordinates": [-86.6805652405, 41.6786138946]}, "properties": {"full_closure": false, "updated_at": "2026-08-05T14:16"}}, {"type": "Feature", "geometry": {"type": "Point", "coordinates": [-86.6314754511, 41.6724072922]}, "properties": {"full_closure": false, "updated_at": "2026-08-05T14:16"}}, {"type": "Feature", "geometry": {"type": "Point", "coordinates": [-86.627482983, 41.6723845024]}, "properties": {"full_closure": false, "updated_at": "2026-08-05T14:16"}}, {"type": "Feature", "geometry": {"type": "Point", "coordinates": [-86.5339436258, 41.0557218174]}, "properties": {"full_closure": false, "updated_at": "2026-08-05T14:16"}}, {"type": "Feature", "geometry": {"type": "Point", "coordinates": [-86.5054062629, 41.6719861805]}, "properties": {"full_closure": false, "updated_at": "2026-08-05T14:16"}}, {"type": "Feature", "geometry": {"type": "Point", "coordinates": [-86.6310476387, 41.3937954804]}, "properties": {"full_closure": false, "updated_at": "2026-08-05T14:16"}}, {"type": "Feature", "geometry": {"type": "Point", "coordinates": [-86.4297867442, 41.364658665]}, "properties": {"full_closure": false, "updated_at": "2026-08-05T14:16"}}, {"type": "Feature", "geometry": {"type": "Point", "coordinates": [-86.4270441854, 41.5680157036]}, "properties": {"full_closure": false, "updated_at": "2026-08-05T14:16"}}, {"type": "Feature", "geometry": {"type": "Point", "coordinates": [-86.4269851768, 41.5439026154]}, "properties": {"full_closure": false, "updated_at": "2026-08-05T14:16"}}, {"type": "Feature", "geometry": {"type": "Point", "coordinates": [-86.4269664014, 41.578186652]}, "properties": {"full_closure": false, "updated_at": "2026-08-05T14:16"}}, {"type": "Feature", "geometry": {"type": "Point", "coordinates": [-86.3847953701, 41.5962392268]}, "properties": {"full_closure": false, "updated_at": "2026-08-05T14:16"}}, {"type": "Feature", "geometry": {"type": "Point", "coordinates": [-86.3482408846, 41.6186128698]}, "properties": {"full_closure": false, "updated_at": "2026-08-05T14:16"}}, {"type": "Feature", "geometry": {"type": "Point", "coordinates": [-86.3365142668, 41.6212682897]}, "properties": {"full_closure": false, "updated_at": "2026-08-05T14:16"}}, {"type": "Feature", "geometry": {"type": "Point", "coordinates": [-86.3320175433, 41.7582486641]}, "properties": {"full_closure": false, "updated_at": "2026-08-05T14:16"}}, {"type": "Feature", "geometry": {"type": "Point", "coordinates": [-86.3288646066, 41.3614439989]}, "properties": {"full_closure": false, "updated_at": "2026-08-05T14:16"}}, {"type": "Feature", "geometry": {"type": "Point", "coordinates": [-86.293015542, 41.3609330978]}, "properties": {"full_closure": false, "updated_at": "2026-08-05T14:16"}}, {"type": "Feature", "geometry": {"type": "Point", "coordinates": [-86.1682981872, 41.0106513478]}, "properties": {"full_closure": false, "updated_at": "2026-08-05T14:16"}}, {"type": "Feature", "geometry": {"type": "Point", "coordinates": [-86.1595099294, 41.4464003021]}, "properties": {"full_closure": false, "updated_at": "2026-08-05T14:16"}}, {"type": "Feature", "geometry": {"type": "Point", "coordinates": [-86.1642105007, 41.4463855373]}, "properties": {"full_closure": false, "updated_at": "2026-08-05T14:16"}}, {"type": "Feature", "geometry": {"type": "Point", "coordinates": [-86.1568464958, 41.1332805908]}, "properties": {"full_closure": false, "updated_at": "2026-08-05T14:16"}}, {"type": "Feature", "geometry": {"type": "Point", "coordinates": [-86.1497694874, 41.1422807405]}, "properties": {"full_closure": false, "updated_at": "2026-08-05T14:16"}}, {"type": "Feature", "geometry": {"type": "Point", "coordinates": [-86.1519514644, 41.1383633814]}, "properties": {"full_closure": false, "updated_at": "2026-08-05T14:16"}}, {"type": "Feature", "geometry": {"type": "Point", "coordinates": [-86.1348859095, 41.6623851994]}, "properties": {"full_closure": false, "updated_at": "2026-08-05T14:16"}}, {"type": "Feature", "geometry": {"type": "Point", "coordinates": [-86.1249013865, 41.6631335557]}, "properties": {"full_closure": false, "updated_at": "2026-08-05T14:16"}}, {"type": "Feature", "geometry": {"type": "Point", "coordinates": [-86.1142919087, 41.6632823994]}, "properties": {"full_closure": false, "updated_at": "2026-08-05T14:16"}}, {"type": "Feature", "geometry": {"type": "Point", "coordinates": [-86.1116915071, 41.6633185927]}, "properties": {"full_closure": false, "updated_at": "2026-08-05T14:16"}}, {"type": "Feature", "geometry": {"type": "Point", "coordinates": [-86.1100406074, 41.6633333706]}, "properties": {"full_closure": false, "updated_at": "2026-08-05T14:16"}}, {"type": "Feature", "geometry": {"type": "Point", "coordinates": [-86.121559354, 41.6632019349]}, "properties": {"full_closure": false, "updated_at": "2026-08-05T14:16"}}, {"type": "Feature", "geometry": {"type": "Point", "coordinates": [-86.0897617662, 41.4493963438]}, "properties": {"full_closure": false, "updated_at": "2026-08-05T14:16"}}, {"type": "Feature", "geometry": {"type": "Point", "coordinates": [-86.0835309946, 41.6633105776]}, "properties": {"full_closure": false, "updated_at": "2026-08-05T14:16"}}, {"type": "Feature", "geometry": {"type": "Point", "coordinates": [-86.0827960693, 41.6633092]}, "properties": {"full_closure": false, "updated_at": "2026-08-05T14:16"}}, {"type": "Feature", "geometry": {"type": "Point", "coordinates": [-86.073590728, 41.663164364]}, "properties": {"full_closure": false, "updated_at": "2026-08-05T14:16"}}, {"type": "Feature", "geometry": {"type": "Point", "coordinates": [-86.0723059499, 41.6631536562]}, "properties": {"full_closure": false, "updated_at": "2026-08-05T14:16"}}, {"type": "Feature", "geometry": {"type": "Point", "coordinates": [-86.069509747, 41.6631764493]}, "properties": {"full_closure": false, "updated_at": "2026-08-05T14:16"}}, {"type": "Feature", "geometry": {"type": "Point", "coordinates": [-86.0706724846, 41.6631536562]}, "properties": {"full_closure": false, "updated_at": "2026-08-05T14:16"}}, {"type": "Feature", "geometry": {"type": "Point", "coordinates": [-86.0620988035, 41.6640065749]}, "properties": {"full_closure": false, "updated_at": "2026-08-05T14:16"}}, {"type": "Feature", "geometry": {"type": "Point", "coordinates": [-86.0623375201, 41.6639837821]}, "properties": {"full_closure": false, "updated_at": "2026-08-05T14:16"}}, {"type": "Feature", "geometry": {"type": "Point", "coordinates": [-86.0035515451, 41.6969749502]}, "properties": {"full_closure": false, "updated_at": "2026-08-05T14:16"}}, {"type": "Feature", "geometry": {"type": "Point", "coordinates": [-86.002036097, 41.5033932103]}, "properties": {"full_closure": false, "updated_at": "2026-08-05T14:16"}}, {"type": "Feature", "geometry": {"type": "Point", "coordinates": [-86.0019033276, 41.4958710071]}, "properties": {"full_closure": false, "updated_at": "2026-08-05T14:16"}}, {"type": "Feature", "geometry": {"type": "Point", "coordinates": [-86.0018671178, 41.5079328901]}, "properties": {"full_closure": false, "updated_at": "2026-08-05T14:16"}}, {"type": "Feature", "geometry": {"type": "Point", "coordinates": [-86.0014379644, 41.4552971746]}, "properties": {"full_closure": false, "updated_at": "2026-08-05T14:16"}}, {"type": "Feature", "geometry": {"type": "Point", "coordinates": [-86.0014406466, 41.4555198085]}, "properties": {"full_closure": false, "updated_at": "2026-08-05T14:16"}}, {"type": "Feature", "geometry": {"type": "Point", "coordinates": [-86.0015398883, 41.507616345]}, "properties": {"full_closure": false, "updated_at": "2026-08-05T14:16"}}, {"type": "Feature", "geometry": {"type": "Point", "coordinates": [-86.0014674687, 41.4531809208]}, "properties": {"full_closure": false, "updated_at": "2026-08-05T14:16"}}, {"type": "Feature", "geometry": {"type": "Point", "coordinates": [-86.0013829791, 41.4499636581]}, "properties": {"full_closure": false, "updated_at": "2026-08-05T14:16"}}, {"type": "Feature", "geometry": {"type": "Point", "coordinates": [-86.0010973238, 41.7020054332]}, "properties": {"full_closure": false, "updated_at": "2026-08-05T14:16"}}, {"type": "Feature", "geometry": {"type": "Point", "coordinates": [-85.9971705698, 41.7026089571]}, "properties": {"full_closure": false, "updated_at": "2026-08-05T14:16"}}, {"type": "Feature", "geometry": {"type": "Point", "coordinates": [-85.9940685951, 41.7026008843]}, "properties": {"full_closure": false, "updated_at": "2026-08-05T14:16"}}, {"type": "Feature", "geometry": {"type": "Point", "coordinates": [-85.9793083989, 41.702564713]}, "properties": {"full_closure": false, "updated_at": "2026-08-05T14:16"}}, {"type": "Feature", "geometry": {"type": "Point", "coordinates": [-85.9247080111, 41.5446053597]}, "properties": {"full_closure": false, "updated_at": "2026-08-05T14:16"}}, {"type": "Feature", "geometry": {"type": "Point", "coordinates": [-85.8760956549, 41.6072255571]}, "properties": {"full_closure": false, "updated_at": "2026-08-05T14:16"}}, {"type": "Feature", "geometry": {"type": "Point", "coordinates": [-85.8711805069, 41.604167872]}, "properties": {"full_closure": false, "updated_at": "2026-08-05T14:16"}}, {"type": "Feature", "geometry": {"type": "Point", "coordinates": [-85.8564001941, 41.5928516036]}, "properties": {"full_closure": false, "updated_at": "2026-08-05T14:16"}}, {"type": "Feature", "geometry": {"type": "Point", "coordinates": [-85.8571404838, 41.5936777457]}, "properties": {"full_closure": false, "updated_at": "2026-08-05T14:16"}}, {"type": "Feature", "geometry": {"type": "Point", "coordinates": [-85.8537381016, 41.5896007799]}, "properties": {"full_closure": false, "updated_at": "2026-08-05T14:16"}}, {"type": "Feature", "geometry": {"type": "Point", "coordinates": [-85.8531426512, 41.5896785779]}, "properties": {"full_closure": false, "updated_at": "2026-08-05T14:16"}}, {"type": "Feature", "geometry": {"type": "Point", "coordinates": [-85.8479579412, 41.5889261713]}, "properties": {"full_closure": false, "updated_at": "2026-08-05T14:16"}}, {"type": "Feature", "geometry": {"type": "Point", "coordinates": [-85.8302526795, 41.6293980396]}, "properties": {"full_closure": false, "updated_at": "2026-08-05T14:16"}}, {"type": "Feature", "geometry": {"type": "Point", "coordinates": [-85.8265793942, 41.6371844807]}, "properties": {"full_closure": false, "updated_at": "2026-08-05T14:16"}}, {"type": "Feature", "geometry": {"type": "Point", "coordinates": [-85.8240956687, 41.6409624045]}, "properties": {"full_closure": false, "updated_at": "2026-08-05T14:16"}}, {"type": "Feature", "geometry": {"type": "Point", "coordinates": [-85.8223334574, 41.5918967534]}, "properties": {"full_closure": false, "updated_at": "2026-08-05T14:16"}}, {"type": "Feature", "geometry": {"type": "Point", "coordinates": [-85.8222959064, 41.5900419892]}, "properties": {"full_closure": false, "updated_at": "2026-08-05T14:16"}}, {"type": "Feature", "geometry": {"type": "Point", "coordinates": [-85.7980929934, 41.5662306796]}, "properties": {"full_closure": false, "updated_at": "2026-08-05T14:16"}}, {"type": "Feature", "geometry": {"type": "Point", "coordinates": [-85.7960209869, 41.5662588375]}, "properties": {"full_closure": false, "updated_at": "2026-08-05T14:16"}}, {"type": "Feature", "geometry": {"type": "Point", "coordinates": [-85.7948636137, 41.0086651157]}, "properties": {"full_closure": false, "updated_at": "2026-08-05T14:16"}}, {"type": "Feature", "geometry": {"type": "Point", "coordinates": [-85.794674518, 41.0001263493]}, "properties": {"full_closure": false, "updated_at": "2026-08-05T14:16"}}, {"type": "Feature", "geometry": {"type": "Point", "coordinates": [-85.7942011081, 40.9904060284]}, "properties": {"full_closure": false, "updated_at": "2026-08-05T14:16"}}, {"type": "Feature", "geometry": {"type": "Point", "coordinates": [-85.7944384836, 41.0001129384]}, "properties": {"full_closure": false, "updated_at": "2026-08-05T14:16"}}, {"type": "Feature", "geometry": {"type": "Point", "coordinates": [-85.7931684576, 40.9215094347]}, "properties": {"full_closure": false, "updated_at": "2026-08-05T14:16"}}, {"type": "Feature", "geometry": {"type": "Point", "coordinates": [-85.792980703, 41.0001343831]}, "properties": {"full_closure": false, "updated_at": "2026-08-05T14:16"}}, {"type": "Feature", "geometry": {"type": "Point", "coordinates": [-85.7927956306, 40.9033589432]}, "properties": {"full_closure": false, "updated_at": "2026-08-05T14:16"}}, {"type": "Feature", "geometry": {"type": "Point", "coordinates": [-85.7927097999, 40.8976109848]}, "properties": {"full_closure": false, "updated_at": "2026-08-05T14:16"}}, {"type": "Feature", "geometry": {"type": "Point", "coordinates": [-85.792377206, 40.8799312054]}, "properties": {"full_closure": false, "updated_at": "2026-08-05T14:16"}}, {"type": "Feature", "geometry": {"type": "Point", "coordinates": [-85.7900074743, 41.0002175053]}, "properties": {"full_closure": false, "updated_at": "2026-08-05T14:16"}}, {"type": "Feature", "geometry": {"type": "Point", "coordinates": [-85.7914370917, 41.0001598765]}, "properties": {"full_closure": false, "updated_at": "2026-08-05T14:16"}}, {"type": "Feature", "geometry": {"type": "Point", "coordinates": [-85.7914826893, 41.0144600805]}, "properties": {"full_closure": false, "updated_at": "2026-08-05T14:16"}}, {"type": "Feature", "geometry": {"type": "Point", "coordinates": [-85.7848281287, 41.0003368746]}, "properties": {"full_closure": false, "updated_at": "2026-08-05T14:16"}}, {"type": "Feature", "geometry": {"type": "Point", "coordinates": [-85.786320778, 41.000296642]}, "properties": {"full_closure": false, "updated_at": "2026-08-05T14:16"}}, {"type": "Feature", "geometry": {"type": "Point", "coordinates": [-85.7791364812, 41.015013916]}, "properties": {"full_closure": false, "updated_at": "2026-08-05T14:16"}}, {"type": "Feature", "geometry": {"type": "Point", "coordinates": [-85.7619757079, 40.9991379215]}, "properties": {"full_closure": false, "updated_at": "2026-08-05T14:16"}}, {"type": "Feature", "geometry": {"type": "Point", "coordinates": [-85.7632336639, 40.9991459555]}, "properties": {"full_closure": false, "updated_at": "2026-08-05T14:16"}}, {"type": "Feature", "geometry": {"type": "Point", "coordinates": [-85.7574682556, 41.0187328473]}, "properties": {"full_closure": false, "updated_at": "2026-08-05T14:16"}}, {"type": "Feature", "geometry": {"type": "Point", "coordinates": [-85.750542792, 41.4504759329]}, "properties": {"full_closure": false, "updated_at": "2026-08-05T14:16"}}, {"type": "Feature", "geometry": {"type": "Point", "coordinates": [-85.7423365735, 41.0594058374]}, "properties": {"full_closure": false, "updated_at": "2026-08-05T14:16"}}, {"type": "Feature", "geometry": {"type": "Point", "coordinates": [-85.7052684449, 41.1953495654]}, "properties": {"full_closure": false, "updated_at": "2026-08-05T14:16"}}, {"type": "Feature", "geometry": {"type": "Point", "coordinates": [-85.7051517688, 41.2104369729]}, "properties": {"full_closure": false, "updated_at": "2026-08-05T14:16"}}, {"type": "Feature", "geometry": {"type": "Point", "coordinates": [-85.7048017405, 41.451028474]}, "properties": {"full_closure": false, "updated_at": "2026-08-05T14:16"}}, {"type": "Feature", "geometry": {"type": "Point", "coordinates": [-85.7201828681, 41.4509010664]}, "properties": {"full_closure": false, "updated_at": "2026-08-05T14:16"}}, {"type": "Feature", "geometry": {"type": "Point", "coordinates": [-85.6888372325, 41.4515421226]}, "properties": {"full_closure": false, "updated_at": "2026-08-05T14:16"}}, {"type": "Feature", "geometry": {"type": "Point", "coordinates": [-85.6131815039, 41.4043727895]}, "properties": {"full_closure": false, "updated_at": "2026-08-05T14:16"}}, {"type": "Feature", "geometry": {"type": "Point", "coordinates": [-85.6008178614, 41.7265449609]}, "properties": {"full_closure": false, "updated_at": "2026-08-05T14:16"}}, {"type": "Feature", "geometry": {"type": "Point", "coordinates": [-85.4951508961, 41.3309875742]}, "properties": {"full_closure": false, "updated_at": "2026-08-05T14:16"}}, {"type": "Feature", "geometry": {"type": "Point", "coordinates": [-85.4919416331, 41.2217250906]}, "properties": {"full_closure": false, "updated_at": "2026-08-05T14:16"}}, {"type": "Feature", "geometry": {"type": "Point", "coordinates": [-85.4915460072, 41.1923803596]}, "properties": {"full_closure": false, "updated_at": "2026-08-05T14:16"}}, {"type": "Feature", "geometry": {"type": "Point", "coordinates": [-85.3766415141, 41.4918208318]}, "properties": {"full_closure": false, "updated_at": "2026-08-05T14:16"}}, {"type": "Feature", "geometry": {"type": "Point", "coordinates": [-85.2733496449, 41.5158548014]}, "properties": {"full_closure": false, "updated_at": "2026-08-05T14:16"}}, {"type": "Feature", "geometry": {"type": "Point", "coordinates": [-85.2855121217, 40.9608440289]}, "properties": {"full_closure": false, "updated_at": "2026-08-05T14:16"}}, {"type": "Feature", "geometry": {"type": "Point", "coordinates": [-85.2215897164, 41.3668044134]}, "properties": {"full_closure": false, "updated_at": "2026-08-05T14:16"}}, {"type": "Feature", "geometry": {"type": "Point", "coordinates": [-85.2215025446, 41.3563679633]}, "properties": {"full_closure": false, "updated_at": "2026-08-05T14:16"}}, {"type": "Feature", "geometry": {"type": "Point", "coordinates": [-85.221173974, 41.3548082625]}, "properties": {"full_closure": false, "updated_at": "2026-08-05T14:16"}}, {"type": "Feature", "geometry": {"type": "Point", "coordinates": [-85.1832824073, 41.2860618601]}, "properties": {"full_closure": false, "updated_at": "2026-08-05T14:16"}}, {"type": "Feature", "geometry": {"type": "Point", "coordinates": [-85.1833373926, 41.274327196]}, "properties": {"full_closure": false, "updated_at": "2026-08-05T14:16"}}, {"type": "Feature", "geometry": {"type": "Point", "coordinates": [-85.1717743895, 41.0176572348]}, "properties": {"full_closure": false, "updated_at": "2026-08-05T14:16"}}, {"type": "Feature", "geometry": {"type": "Point", "coordinates": [-85.1682164392, 40.9746963]}, "properties": {"full_closure": false, "updated_at": "2026-08-05T14:16"}}, {"type": "Feature", "geometry": {"type": "Point", "coordinates": [-85.1681145153, 40.9706461707]}, "properties": {"full_closure": false, "updated_at": "2026-08-05T14:16"}}, {"type": "Feature", "geometry": {"type": "Point", "coordinates": [-85.1666299126, 41.1888103352]}, "properties": {"full_closure": false, "updated_at": "2026-08-05T14:16"}}, {"type": "Feature", "geometry": {"type": "Point", "coordinates": [-85.1660639665, 41.1831522309]}, "properties": {"full_closure": false, "updated_at": "2026-08-05T14:16"}}, {"type": "Feature", "geometry": {"type": "Point", "coordinates": [-85.1584250352, 41.1177961539]}, "properties": {"full_closure": false, "updated_at": "2026-08-05T14:16"}}, {"type": "Feature", "geometry": {"type": "Point", "coordinates": [-85.1552358887, 41.117782767]}, "properties": {"full_closure": false, "updated_at": "2026-08-05T14:16"}}, {"type": "Feature", "geometry": {"type": "Point", "coordinates": [-85.1410014055, 41.1081013524]}, "properties": {"full_closure": false, "updated_at": "2026-08-05T14:16"}}, {"type": "Feature", "geometry": {"type": "Point", "coordinates": [-85.0879754743, 41.0892319845]}, "properties": {"full_closure": false, "updated_at": "2026-08-05T14:16"}}, {"type": "Feature", "geometry": {"type": "Point", "coordinates": [-85.0876200816, 41.0759523715]}, "properties": {"full_closure": false, "updated_at": "2026-08-05T14:16"}}, {"type": "Feature", "geometry": {"type": "Point", "coordinates": [-85.0874698779, 41.0757539038]}, "properties": {"full_closure": false, "updated_at": "2026-08-05T14:16"}}, {"type": "Feature", "geometry": {"type": "Point", "coordinates": [-85.0780526421, 41.3666301015]}, "properties": {"full_closure": false, "updated_at": "2026-08-05T14:16"}}, {"type": "Feature", "geometry": {"type": "Point", "coordinates": [-85.0750083348, 41.3666461425]}, "properties": {"full_closure": false, "updated_at": "2026-08-05T14:16"}}, {"type": "Feature", "geometry": {"type": "Point", "coordinates": [-85.0743203482, 41.3666568994]}, "properties": {"full_closure": false, "updated_at": "2026-08-05T14:16"}}, {"type": "Feature", "geometry": {"type": "Point", "coordinates": [-85.0724656007, 41.3666891072]}, "properties": {"full_closure": false, "updated_at": "2026-08-05T14:16"}}, {"type": "Feature", "geometry": {"type": "Point", "coordinates": [-85.0604949019, 41.0694118452]}, "properties": {"full_closure": false, "updated_at": "2026-08-05T14:16"}}, {"type": "Feature", "geometry": {"type": "Point", "coordinates": [-85.0611708185, 40.9915352301]}, "properties": {"full_closure": false, "updated_at": "2026-08-05T14:16"}}, {"type": "Feature", "geometry": {"type": "Point", "coordinates": [-85.059341552, 41.5271361789]}, "properties": {"full_closure": false, "updated_at": "2026-08-05T14:16"}}, {"type": "Feature", "geometry": {"type": "Point", "coordinates": [-85.0569651148, 41.0694909619]}, "properties": {"full_closure": false, "updated_at": "2026-08-05T14:16"}}, {"type": "Feature", "geometry": {"type": "Point", "coordinates": [-85.0553490839, 41.0695244538]}, "properties": {"full_closure": false, "updated_at": "2026-08-05T14:16"}}, {"type": "Feature", "geometry": {"type": "Point", "coordinates": [-85.0552109501, 41.5271616555]}, "properties": {"full_closure": false, "updated_at": "2026-08-05T14:16"}}, {"type": "Feature", "geometry": {"type": "Point", "coordinates": [-84.9937964103, 41.0889610968]}, "properties": {"full_closure": false, "updated_at": "2026-08-05T14:16"}}]}